FID,aminity,lat,lon,name,addressline,type,info
budovy_ksk.2,Shop,48.7062147,21.2473172, , ,commercial,"{""web"": ""none""}"
budovy_ksk.10,School,48.716165,21.207808, , ,school,"{""web"": ""none""}"
budovy_ksk.11,School,48.7163273,21.2083618, , ,school,"{""web"": ""none""}"
budovy_ksk.12,School,48.7162845,21.2088088, , ,school,"{""web"": ""none""}"
budovy_ksk.25,Transport,48.7161882,21.2124556, , ,parking,"{""web"": ""none""}"
budovy_ksk.32,School,48.7224721,21.2465165, , ,school,"{""web"": ""none""}"
budovy_ksk.39,Job,48.6953965,21.2857763, , ,industrial,"{""web"": ""none""}"
budovy_ksk.41,Shop,48.7412721,21.2657942,Tesco Extra, ,retail,"{""web"": ""none""}"
budovy_ksk.44,Shop,48.7254741,21.2557062,OD Urban, ,retail,"{""web"": ""none""}"
budovy_ksk.45,Shop,48.6958254,21.2360247,Atrium Optima, ,retail,"{""web"": ""none""}"
budovy_ksk.91,Shop,48.7258391,21.2464934, , ,commercial,"{""web"": ""none""}"
budovy_ksk.156,Shop,48.7307003,21.2420587,OC Merkúr, ,retail,"{""web"": ""none""}"
budovy_ksk.321,School,48.7155917,21.2087202, , ,school,"{""web"": ""none""}"
budovy_ksk.322,School,48.7155429,21.2091663, , ,school,"{""web"": ""none""}"
budovy_ksk.323,School,48.715401,21.20809, , ,school,"{""web"": ""none""}"
budovy_ksk.359,Shop,48.7288717,21.2581128,Jumbo Centrum, ,commercial,"{""web"": ""none""}"
budovy_ksk.643,School,48.7247998,21.2514949,Gymnázium sv. Tomáša Akvinského a školský internát, ,school,"{""web"": ""none""}"
budovy_ksk.649,School,48.7248072,21.2520321, , ,school,"{""web"": ""none""}"
budovy_ksk.705,School,48.7229189,21.2536315, , ,school,"{""web"": ""none""}"
budovy_ksk.733,Shop,48.7212685,21.2499212,Rozhlas a televízia Slovenska, ,commercial,"{""web"": ""none""}"
budovy_ksk.763,School,48.7186154,21.2505641, , ,school,"{""web"": ""none""}"
budovy_ksk.769,School,48.7183506,21.2506853,Gymnázium a Záklandá Školda Sándora Máraiho s vyučovacím jazykom maďarským, ,school,"{""web"": ""none""}"
budovy_ksk.2116,Shop,48.7215407,21.2548742,"UNIQA poisťovňa, a.s.", ,commercial,"{""web"": ""none""}"
budovy_ksk.2210,Job,48.7265686,21.2557267,Dom služieb, ,office,"{""web"": ""none""}"
budovy_ksk.2212,School,48.7261373,21.2553287, , ,school,"{""web"": ""none""}"
budovy_ksk.2213,Shop,48.7257154,21.2566552, , ,retail,"{""web"": ""none""}"
budovy_ksk.2263,School,48.7238768,21.258398,Základná umelecká škola – výtvarný odbor, ,school,"{""web"": ""none""}"
budovy_ksk.3983,Job,48.7193024,21.2453541,Stavebné bytové družstvo I., ,office,"{""web"": ""none""}"
budovy_ksk.4003,Job,48.7218599,21.261422, , ,office,"{""web"": ""none""}"
budovy_ksk.4017,Shop,48.7210595,21.2592592, , ,commercial,"{""web"": ""none""}"
budovy_ksk.4027,Shop,48.7214491,21.263195,"Východoslovenská energetika, a.s.", ,commercial,"{""web"": ""none""}"
budovy_ksk.4074,Shop,48.7217702,21.2619986, , ,retail,"{""web"": ""none""}"
budovy_ksk.4189,Job,48.7181076,21.2616693, , ,office,"{""web"": ""none""}"
budovy_ksk.4200,Job,48.7204019,21.2612417, , ,office,"{""web"": ""none""}"
budovy_ksk.4271,Shop,48.7200391,21.2627308, , ,retail,"{""web"": ""none""}"
budovy_ksk.4278,Shop,48.7213545,21.2617928,Gastrodom, ,commercial,"{""web"": ""none""}"
budovy_ksk.4317,Shop,48.7066543,21.2433751, , ,retail,"{""web"": ""none""}"
budovy_ksk.4321,School,48.708415,21.243231, , ,kindergarten,"{""web"": ""none""}"
budovy_ksk.4355,Shop,48.7229311,21.2657985, , ,retail,"{""web"": ""none""}"
budovy_ksk.4395,School,48.7258391,21.2626217, , ,school,"{""web"": ""none""}"
budovy_ksk.4402,School,48.725394,21.2609553, , ,school,"{""web"": ""none""}"
budovy_ksk.4480,School,48.7279916,21.2614122, , ,school,"{""web"": ""none""}"
budovy_ksk.5312,Shop,48.7159971,21.267922,Podnikateľské centrum, ,commercial,"{""web"": ""none""}"
budovy_ksk.5330,Shop,48.7167615,21.2673839,Podnikateľské centrum, ,commercial,"{""web"": ""none""}"
budovy_ksk.6915,Shop,48.7000947,21.2236148,Abra, ,retail,"{""web"": ""none""}"
budovy_ksk.9750,Sport,48.7180273,21.2351596, , ,sports_centre,"{""web"": ""none""}"
budovy_ksk.9751,Shop,48.718211,21.2350603, , ,retail,"{""web"": ""none""}"
budovy_ksk.9766,School,48.7173813,21.2374757, , ,school,"{""web"": ""none""}"
budovy_ksk.9771,Job,48.7169913,21.2373864,Centrum pedagogicko-psychologického poradenstva a prevencie, ,office,"{""web"": ""none""}"
budovy_ksk.9772,School,48.7172535,21.2380735, , ,school,"{""web"": ""none""}"
budovy_ksk.9773,School,48.7179223,21.2378642, , ,school,"{""web"": ""none""}"
budovy_ksk.9774,School,48.7176523,21.237542, , ,school,"{""web"": ""none""}"
budovy_ksk.9775,School,48.7178873,21.2382252, , ,school,"{""web"": ""none""}"
budovy_ksk.9796,Shop,48.7406623,21.2641439,Tesco, ,retail,"{""web"": ""none""}"
budovy_ksk.9797,Shop,48.7413506,21.2633303,Nay, ,retail,"{""web"": ""none""}"
budovy_ksk.9798,Shop,48.7416433,21.2651943, , ,retail,"{""web"": ""none""}"
budovy_ksk.9801,Shop,48.7313522,21.2524101, , ,commercial,"{""web"": ""none""}"
budovy_ksk.10435,Shop,48.7130789,21.2645375, , ,commercial,"{""web"": ""none""}"
budovy_ksk.10436,School,48.714685,21.2639882, , ,kindergarten,"{""web"": ""none""}"
budovy_ksk.10446,Job,48.7146454,21.2612574, , ,office,"{""web"": ""none""}"
budovy_ksk.10450,Job,48.7142675,21.2613242,FPT Slovakia, ,office,"{""web"": ""none""}"
budovy_ksk.10456,Shop,48.7136737,21.2613383,Office Point, ,commercial,"{""web"": ""none""}"
budovy_ksk.10463,Shop,48.7134509,21.2617381, , ,retail,"{""web"": ""none""}"
budovy_ksk.10481,Shop,48.7169007,21.2627761, , ,commercial,"{""web"": ""none""}"
budovy_ksk.10515,School,48.715444,21.2654272, , ,school,"{""web"": ""none""}"
budovy_ksk.12400,Job,48.731707,21.266679, , ,office,"{""web"": ""none""}"
budovy_ksk.12447,Job,48.7318197,21.2671405, , ,office,"{""web"": ""none""}"
budovy_ksk.12449,Job,48.7321779,21.2668381,Cromwell, ,office,"{""web"": ""none""}"
budovy_ksk.12451,Shop,48.7315044,21.2668957, , ,commercial,"{""web"": ""none""}"
budovy_ksk.12453,Job,48.7345167,21.2644755, , ,office,"{""web"": ""none""}"
budovy_ksk.12515,School,48.7221986,21.2730534, , ,school,"{""web"": ""none""}"
budovy_ksk.12545,Shop,48.7124506,21.2472482,Elkem, ,retail,"{""web"": ""none""}"
budovy_ksk.12580,School,48.7128454,21.2483427, , ,school,"{""web"": ""none""}"
budovy_ksk.12693,Shop,48.7131071,21.2530886, , ,commercial,"{""web"": ""none""}"
budovy_ksk.12701,Shop,48.7131048,21.2534901, , ,commercial,"{""web"": ""none""}"
budovy_ksk.12702,Shop,48.7131777,21.2545664, , ,commercial,"{""web"": ""none""}"
budovy_ksk.12720,Shop,48.7143351,21.2585227, , ,retail,"{""web"": ""none""}"
budovy_ksk.12748,Shop,48.7145775,21.2488546, , ,commercial,"{""web"": ""none""}"
budovy_ksk.12750,School,48.7136221,21.250019, , ,school,"{""web"": ""none""}"
budovy_ksk.12766,Sport,48.7136264,21.249507, , ,sports_centre,"{""web"": ""none""}"
budovy_ksk.12770,Shop,48.7148478,21.2486983, , ,commercial,"{""web"": ""none""}"
budovy_ksk.12781,Shop,48.7149613,21.2494386, , ,retail,"{""web"": ""none""}"
budovy_ksk.12810,School,48.7154295,21.2504917, , ,kindergarten,"{""web"": ""none""}"
budovy_ksk.12935,Shop,48.7157879,21.2550946, , ,commercial,"{""web"": ""none""}"
budovy_ksk.13005,Shop,48.7147855,21.2589293, , ,retail,"{""web"": ""none""}"
budovy_ksk.13060,Shop,48.7146735,21.2594568, , ,retail,"{""web"": ""none""}"
budovy_ksk.13067,Shop,48.7151725,21.2595837, , ,retail,"{""web"": ""none""}"
budovy_ksk.13068,Shop,48.7151507,21.2593034, , ,retail,"{""web"": ""none""}"
budovy_ksk.13078,Shop,48.7149033,21.2593183, , ,retail,"{""web"": ""none""}"
budovy_ksk.13120,Shop,48.7435443,21.2756629, , ,retail,"{""web"": ""none""}"
budovy_ksk.13136,Shop,48.7400255,21.2778685,Fresh Plus, ,retail,"{""web"": ""none""}"
budovy_ksk.13144,School,48.7404382,21.2793712, , ,kindergarten,"{""web"": ""none""}"
budovy_ksk.13231,School,48.7350014,21.2873219, , ,kindergarten,"{""web"": ""none""}"
budovy_ksk.14262,School,48.7428342,21.2762285, , ,kindergarten,"{""web"": ""none""}"
budovy_ksk.15882,Shop,48.7017405,21.2396867, , ,commercial,"{""web"": ""none""}"
budovy_ksk.15887,Shop,48.7051958,21.2345197, , ,retail,"{""web"": ""none""}"
budovy_ksk.15926,Shop,48.7030768,21.2351048,Stavebné bytové družstvo II., ,commercial,"{""web"": ""none""}"
budovy_ksk.16254,Shop,48.7041583,21.2358484, , ,commercial,"{""web"": ""none""}"
budovy_ksk.16295,Shop,48.7054277,21.2344114, , ,retail,"{""web"": ""none""}"
budovy_ksk.16373,School,48.7049162,21.2406238, , ,school,"{""web"": ""none""}"
budovy_ksk.18123,School,48.7049598,21.2827636, , ,kindergarten,"{""web"": ""none""}"
budovy_ksk.18150,School,48.7064131,21.2818978, , ,school,"{""web"": ""none""}"
budovy_ksk.18550,School,48.7175745,21.2784926, , ,school,"{""web"": ""none""}"
budovy_ksk.20968,Job,48.7409937,21.2592243, , ,industrial,"{""web"": ""none""}"
budovy_ksk.20972,Shop,48.7403218,21.2637578, , ,retail,"{""web"": ""none""}"
budovy_ksk.20984,Job,48.740659,21.2603139, , ,industrial,"{""web"": ""none""}"
budovy_ksk.20988,Job,48.740359,21.2600735, , ,industrial,"{""web"": ""none""}"
budovy_ksk.21009,Shop,48.740576,21.2631315,Mountfield, ,retail,"{""web"": ""none""}"
budovy_ksk.21167,Job,48.7412176,21.2586857,Hornet Autosklo, ,industrial,"{""web"": ""none""}"
budovy_ksk.21386,School,48.7275392,21.2875364,Základná škola Ľudovíta Fullu, ,school,"{""web"": ""none""}"
budovy_ksk.21453,School,48.7284129,21.2862141, , ,kindergarten,"{""web"": ""none""}"
budovy_ksk.21504,School,48.723849,21.2437123, , ,school,"{""web"": ""none""}"
budovy_ksk.21508,School,48.7229477,21.2441984, , ,school,"{""web"": ""none""}"
budovy_ksk.21518,School,48.723838,21.2433728, , ,school,"{""web"": ""none""}"
budovy_ksk.21662,School,48.7246575,21.2422432,MŠ Tatranská 23, ,school,"{""web"": ""none""}"
budovy_ksk.21702,Shop,48.7288913,21.2426336, , ,commercial,"{""web"": ""none""}"
budovy_ksk.21765,School,48.7282885,21.2450546, , ,school,"{""web"": ""none""}"
budovy_ksk.21880,Job,48.7211888,21.2453218,Spoločenskovedný ústav Slovenskej akadémie vied, ,office,"{""web"": ""none""}"
budovy_ksk.21964,School,48.7223521,21.2450166, , ,school,"{""web"": ""none""}"
budovy_ksk.22232,Shop,48.7441318,21.2685626,Kärcher, ,retail,"{""web"": ""none""}"
budovy_ksk.22235,Job,48.7453209,21.2675628, , ,office,"{""web"": ""none""}"
budovy_ksk.22346,Shop,48.7449224,21.2701187, , ,commercial,"{""web"": ""none""}"
budovy_ksk.22343,Job,48.7464671,21.2706304,Stredisko správy a údržby rýchlostných ciest, ,office,"{""web"": ""none""}"
budovy_ksk.22993,School,48.707033,21.211331, , ,kindergarten,"{""web"": ""none""}"
budovy_ksk.23718,Shop,48.7291902,21.2602729,Slovnaft, ,retail,"{""web"": ""none""}"
budovy_ksk.23943,Shop,48.7330422,21.2617666, , ,retail,"{""web"": ""none""}"
budovy_ksk.24638,School,48.7298808,21.2533764,Stredná odborná škola Jána Bocatia, ,school,"{""web"": ""none""}"
budovy_ksk.24665,Job,48.7281137,21.2551884,Daňový úrad Košice, ,office,"{""web"": ""none""}"
budovy_ksk.24935,Shop,48.7276466,21.2495792,METEC PLUS, ,commercial,"{""web"": ""none""}"
budovy_ksk.24936,Shop,48.7275739,21.2493396, , ,commercial,"{""web"": ""none""}"
budovy_ksk.25210,School,48.719585,21.234982, , ,kindergarten,"{""web"": ""none""}"
budovy_ksk.25281,School,48.7195941,21.2374851, , ,school,"{""web"": ""none""}"
budovy_ksk.25282,School,48.7192216,21.2370856, , ,school,"{""web"": ""none""}"
budovy_ksk.25645,Shop,48.7150071,21.2360111,Trade Center, ,commercial,"{""web"": ""none""}"
budovy_ksk.25648,Job,48.7152227,21.2356297, , ,office,"{""web"": ""none""}"
budovy_ksk.25650,Shop,48.7155587,21.2356132, , ,retail,"{""web"": ""none""}"
budovy_ksk.25657,Shop,48.7153932,21.2369753,Galéria, ,retail,"{""web"": ""none""}"
budovy_ksk.26106,Shop,48.7157426,21.2466859,Stará sladovňa, ,retail,"{""web"": ""none""}"
budovy_ksk.26118,Job,48.7183726,21.2501382, , ,office,"{""web"": ""none""}"
budovy_ksk.26121,Transport,48.7173664,21.2493006, , ,parking,"{""web"": ""none""}"
budovy_ksk.26122,Transport,48.7174591,21.2496721, , ,parking,"{""web"": ""none""}"
budovy_ksk.26182,School,48.7208008,21.2476534, , ,school,"{""web"": ""none""}"
budovy_ksk.27254,School,48.7466375,21.2435162, , ,school,"{""web"": ""none""}"
budovy_ksk.28121,Shop,48.722801,21.2307402, , ,retail,"{""web"": ""none""}"
budovy_ksk.28202,School,48.7203768,21.2305911, , ,college,"{""web"": ""none""}"
budovy_ksk.28235,Shop,48.7190368,21.2324102, , ,retail,"{""web"": ""none""}"
budovy_ksk.28295,School,48.72223,21.2323185, , ,kindergarten,"{""web"": ""none""}"
budovy_ksk.28405,School,48.7163311,21.229904, , ,kindergarten,"{""web"": ""none""}"
budovy_ksk.28416,School,48.7179463,21.2300226, , ,kindergarten,"{""web"": ""none""}"
budovy_ksk.28655,School,48.7117954,21.2291727,Základná umelecká škola Uherova 11, ,school,"{""web"": ""none""}"
budovy_ksk.28678,School,48.7090963,21.2313651, , ,kindergarten,"{""web"": ""none""}"
budovy_ksk.28773,School,48.7118149,21.2330876, , ,kindergarten,"{""web"": ""none""}"
budovy_ksk.29002,Shop,48.7235589,21.2294524, , ,retail,"{""web"": ""none""}"
budovy_ksk.29018,Job,48.7237601,21.2346459,AIR - TRANSPORT EUROPE, ,office,"{""web"": ""none""}"
budovy_ksk.29106,School,48.7048599,21.2325494, , ,kindergarten,"{""web"": ""none""}"
budovy_ksk.29111,Shop,48.7054007,21.2323139, , ,commercial,"{""web"": ""none""}"
budovy_ksk.29260,School,48.7087158,21.2344384, , ,kindergarten,"{""web"": ""none""}"
budovy_ksk.29261,School,48.7087801,21.2346943, , ,kindergarten,"{""web"": ""none""}"
budovy_ksk.29262,School,48.7089753,21.2341687, , ,kindergarten,"{""web"": ""none""}"
budovy_ksk.29263,School,48.7087188,21.2338452, , ,kindergarten,"{""web"": ""none""}"
budovy_ksk.29272,Shop,48.7023405,21.2312964,Marco Car, ,retail,"{""web"": ""none""}"
budovy_ksk.29318,Shop,48.7020204,21.2309872, , ,retail,"{""web"": ""none""}"
budovy_ksk.29408,Shop,48.7010555,21.2298201,Eso, ,retail,"{""web"": ""none""}"
budovy_ksk.29495,Job,48.7012955,21.2301487,"GEOLAB, s.r.o.", ,office,"{""web"": ""none""}"
budovy_ksk.29502,School,48.6986842,21.2322165, , ,school,"{""web"": ""none""}"
budovy_ksk.29505,School,48.6998935,21.2330521, , ,school,"{""web"": ""none""}"
budovy_ksk.29525,Shop,48.7019397,21.2318319, , ,retail,"{""web"": ""none""}"
budovy_ksk.29526,Shop,48.7019759,21.2315189, , ,retail,"{""web"": ""none""}"
budovy_ksk.29743,Shop,48.7281277,21.2422914,Slovnaft, ,retail,"{""web"": ""none""}"
budovy_ksk.29903,Shop,48.7079193,21.2445672, , ,commercial,"{""web"": ""none""}"
budovy_ksk.29957,School,48.7105035,21.2426092, , ,kindergarten,"{""web"": ""none""}"
budovy_ksk.29958,School,48.7102004,21.240638, , ,school,"{""web"": ""none""}"
budovy_ksk.29960,School,48.7098187,21.2386995, , ,school,"{""web"": ""none""}"
budovy_ksk.30298,Shop,48.7149151,21.2358058, , ,commercial,"{""web"": ""none""}"
budovy_ksk.30327,Shop,48.7165863,21.2394173, , ,retail,"{""web"": ""none""}"
budovy_ksk.30386,School,48.7193604,21.2368314, , ,school,"{""web"": ""none""}"
budovy_ksk.126083,Job,48.7136956,21.2517109, , ,office,"{""web"": ""none""}"
budovy_ksk.164797,School,48.7150543,21.2084923, , ,school,"{""web"": ""none""}"
budovy_ksk.164808,School,48.7183196,21.2109919, , ,kindergarten,"{""web"": ""none""}"
budovy_ksk.164819,School,48.7202654,21.2132524, , ,school,"{""web"": ""none""}"
budovy_ksk.164853,School,48.7157906,21.2081261,Základná škola Janigova, ,school,"{""web"": ""none""}"
budovy_ksk.164878,Shop,48.7299577,21.2425985,Cassofin Bussines Centre I, ,commercial,"{""web"": ""none""}"
budovy_ksk.164880,School,48.717063,21.2157668, , ,school,"{""web"": ""none""}"
budovy_ksk.164891,School,48.7186581,21.2154471, , ,school,"{""web"": ""none""}"
budovy_ksk.164892,School,48.7178973,21.215954, , ,school,"{""web"": ""none""}"
budovy_ksk.164903,School,48.7149951,21.2171069, , ,kindergarten,"{""web"": ""none""}"
budovy_ksk.164904,School,48.7176154,21.2157607, , ,school,"{""web"": ""none""}"
budovy_ksk.164923,School,48.7138901,21.2090005, , ,kindergarten,"{""web"": ""none""}"
budovy_ksk.164925,School,48.7174798,21.2161553,ZŠ Starozagorská, ,school,"{""web"": ""none""}"
budovy_ksk.165508,Shop,48.7188157,21.2450776,Cassovar Business Center, ,retail,"{""web"": ""none""}"
budovy_ksk.165509,School,48.7191897,21.2481183, , ,school,"{""web"": ""none""}"
budovy_ksk.175434,School,48.7054331,21.2280501,Centrum voľného času Domino, ,school,"{""web"": ""none""}"
budovy_ksk.193306,Shop,48.7172359,21.2614442,Aupark, ,retail,"{""web"": ""none""}"
budovy_ksk.193710,Shop,48.6974948,21.2352941, , ,commercial,"{""web"": ""none""}"
budovy_ksk.193711,Shop,48.6972476,21.2351436,KOŠICE hotel, ,commercial,"{""web"": ""none""}"
budovy_ksk.199215,Shop,48.718482,21.2642033,Aupark Tower, ,commercial,"{""web"": ""none""}"
budovy_ksk.221032,Shop,48.6942326,21.2529134,Shell, ,retail,"{""web"": ""none""}"
budovy_ksk.221039,Job,48.6936724,21.2480169,Jobelsa, ,industrial,"{""web"": ""none""}"
budovy_ksk.221068,Shop,48.6950335,21.2424469, , ,retail,"{""web"": ""none""}"
budovy_ksk.221106,Shop,48.7304809,21.2434751,HPK business center, ,commercial,"{""web"": ""none""}"
budovy_ksk.221122,Shop,48.703066,21.245022,Slovnaft, ,retail,"{""web"": ""none""}"
budovy_ksk.221195,Shop,48.7280319,21.2775319, , ,retail,"{""web"": ""none""}"
budovy_ksk.221197,Shop,48.7256281,21.2770736, , ,retail,"{""web"": ""none""}"
budovy_ksk.221548,School,48.6958411,21.2821259, , ,school,"{""web"": ""none""}"
budovy_ksk.221578,Shop,48.6958977,21.2857325, , ,commercial,"{""web"": ""none""}"
budovy_ksk.222128,Shop,48.7039344,21.2610767,Strojár, ,commercial,"{""web"": ""none""}"
budovy_ksk.222318,School,48.7010119,21.2544156, , ,kindergarten,"{""web"": ""none""}"
budovy_ksk.222319,School,48.7010284,21.2548601, , ,kindergarten,"{""web"": ""none""}"
budovy_ksk.222320,School,48.7015419,21.2546317, , ,kindergarten,"{""web"": ""none""}"
budovy_ksk.222321,School,48.7013422,21.2543329, , ,kindergarten,"{""web"": ""none""}"
budovy_ksk.222322,School,48.701329,21.2548701, , ,kindergarten,"{""web"": ""none""}"
budovy_ksk.222613,School,48.7057453,21.2571086, , ,school,"{""web"": ""none""}"
budovy_ksk.222862,Job,48.7295837,21.2388694, , ,industrial,"{""web"": ""none""}"
budovy_ksk.222863,School,48.7302994,21.2381375, , ,school,"{""web"": ""none""}"
budovy_ksk.223022,School,48.7051128,21.2594668, , ,school,"{""web"": ""none""}"
budovy_ksk.223026,Transport,48.7084224,21.2658742,Košice predmestie, ,train_station,"{""web"": ""none""}"
budovy_ksk.223698,Job,48.6988288,21.2729026, , ,industrial,"{""web"": ""none""}"
budovy_ksk.223947,Shop,48.7302165,21.2409209,Podnikateľské centrum, ,commercial,"{""web"": ""none""}"
budovy_ksk.223949,School,48.7308848,21.2409165, , ,school,"{""web"": ""none""}"
budovy_ksk.223951,Shop,48.730146,21.241525,HS HSV s.r.o., ,commercial,"{""web"": ""none""}"
budovy_ksk.224096,Job,48.7083995,21.2681906, , ,industrial,"{""web"": ""none""}"
budovy_ksk.224172,Job,48.7090692,21.2693169, , ,industrial,"{""web"": ""none""}"
budovy_ksk.224289,Job,48.7114867,21.2692368, , ,industrial,"{""web"": ""none""}"
budovy_ksk.224879,School,48.705381,21.2623695, , ,school,"{""web"": ""none""}"
budovy_ksk.224880,School,48.7051244,21.2624227, , ,school,"{""web"": ""none""}"
budovy_ksk.224955,School,48.7098592,21.263309, , ,kindergarten,"{""web"": ""none""}"
budovy_ksk.225057,School,48.711801,21.2637551, , ,school,"{""web"": ""none""}"
budovy_ksk.225060,School,48.7123788,21.2631244, , ,school,"{""web"": ""none""}"
budovy_ksk.225155,School,48.7088404,21.259422, , ,kindergarten,"{""web"": ""none""}"
budovy_ksk.225238,Job,48.7122627,21.2574841, , ,office,"{""web"": ""none""}"
budovy_ksk.225273,Job,48.7122265,21.2573284, , ,office,"{""web"": ""none""}"
budovy_ksk.225659,Shop,48.7121129,21.2517452,Office House Slovakia, ,commercial,"{""web"": ""none""}"
budovy_ksk.225835,Shop,48.708719,21.2484333,Castor Business Residence, ,commercial,"{""web"": ""none""}"
budovy_ksk.225979,School,48.7082504,21.2512168, , ,kindergarten,"{""web"": ""none""}"
budovy_ksk.226353,Shop,48.7073606,21.2462906, , ,commercial,"{""web"": ""none""}"
budovy_ksk.226356,Shop,48.7064293,21.2475829,BCT-1, ,commercial,"{""web"": ""none""}"
budovy_ksk.226369,Shop,48.7067743,21.2474207, , ,commercial,"{""web"": ""none""}"
budovy_ksk.226370,Shop,48.7073439,21.2461811, , ,commercial,"{""web"": ""none""}"
budovy_ksk.226377,Shop,48.7076906,21.2461463,Business Center Moldavská, ,commercial,"{""web"": ""none""}"
budovy_ksk.226379,Shop,48.7014104,21.2504191, , ,retail,"{""web"": ""none""}"
budovy_ksk.226380,Shop,48.7060638,21.2474398, , ,commercial,"{""web"": ""none""}"
budovy_ksk.226382,Job,48.7368393,21.2632013, , ,industrial,"{""web"": ""none""}"
budovy_ksk.226384,Job,48.7367305,21.2630968, , ,industrial,"{""web"": ""none""}"
budovy_ksk.226387,Job,48.7370435,21.2630254, , ,industrial,"{""web"": ""none""}"
budovy_ksk.226389,Job,48.7375485,21.2629607, , ,industrial,"{""web"": ""none""}"
budovy_ksk.226394,Job,48.7372201,21.2630849, , ,industrial,"{""web"": ""none""}"
budovy_ksk.226395,Job,48.736634,21.2630242, , ,industrial,"{""web"": ""none""}"
budovy_ksk.226396,Job,48.7351183,21.2631717, , ,industrial,"{""web"": ""none""}"
budovy_ksk.226400,Job,48.737394,21.2630905, , ,industrial,"{""web"": ""none""}"
budovy_ksk.226405,Job,48.7367342,21.2628329, , ,industrial,"{""web"": ""none""}"
budovy_ksk.226406,Job,48.73653,21.2629441, , ,industrial,"{""web"": ""none""}"
budovy_ksk.226409,Job,48.7366446,21.2655447, , ,office,"{""web"": ""none""}"
budovy_ksk.226410,Job,48.7370514,21.2629571, , ,industrial,"{""web"": ""none""}"
budovy_ksk.226413,Job,48.7350282,21.2631487, , ,industrial,"{""web"": ""none""}"
budovy_ksk.226416,Job,48.7369097,21.266289, , ,industrial,"{""web"": ""none""}"
budovy_ksk.226417,Job,48.7361224,21.266426, , ,industrial,"{""web"": ""none""}"
budovy_ksk.226418,Job,48.7363222,21.2632203, , ,industrial,"{""web"": ""none""}"
budovy_ksk.226421,Job,48.7359445,21.2645355, , ,industrial,"{""web"": ""none""}"
budovy_ksk.226423,Job,48.735743,21.2652791, , ,industrial,"{""web"": ""none""}"
budovy_ksk.226426,Job,48.7363224,21.2660555, , ,industrial,"{""web"": ""none""}"
budovy_ksk.226430,Job,48.7379522,21.2642861, , ,industrial,"{""web"": ""none""}"
budovy_ksk.226431,Job,48.7356868,21.2638008, , ,industrial,"{""web"": ""none""}"
budovy_ksk.226433,Job,48.7359119,21.2657834, , ,industrial,"{""web"": ""none""}"
budovy_ksk.226435,Job,48.7360829,21.2667178, , ,industrial,"{""web"": ""none""}"
budovy_ksk.226436,Job,48.7351009,21.2656656, , ,industrial,"{""web"": ""none""}"
budovy_ksk.226440,Job,48.7354479,21.2638238, , ,industrial,"{""web"": ""none""}"
budovy_ksk.226445,Job,48.7367358,21.2646526, , ,industrial,"{""web"": ""none""}"
budovy_ksk.226451,Job,48.7354223,21.2667379, , ,industrial,"{""web"": ""none""}"
budovy_ksk.226454,Job,48.736101,21.2661026, , ,industrial,"{""web"": ""none""}"
budovy_ksk.226456,Job,48.7375732,21.2643131, , ,industrial,"{""web"": ""none""}"
budovy_ksk.226457,Job,48.7354771,21.2656576, , ,industrial,"{""web"": ""none""}"
budovy_ksk.226459,Job,48.7362354,21.2655975, , ,industrial,"{""web"": ""none""}"
budovy_ksk.226468,Job,48.7381734,21.2613847, , ,industrial,"{""web"": ""none""}"
budovy_ksk.226469,Job,48.7380069,21.2613802, , ,industrial,"{""web"": ""none""}"
budovy_ksk.226495,Job,48.7381832,21.2617212, , ,industrial,"{""web"": ""none""}"
budovy_ksk.226584,Job,48.7395278,21.2585911, , ,industrial,"{""web"": ""none""}"
budovy_ksk.226678,Job,48.7398171,21.2582208, , ,industrial,"{""web"": ""none""}"
budovy_ksk.226699,Job,48.7400114,21.2578771, , ,industrial,"{""web"": ""none""}"
budovy_ksk.226773,Job,48.7404078,21.2575026, , ,office,"{""web"": ""none""}"
budovy_ksk.226804,Job,48.7402283,21.2574897, , ,industrial,"{""web"": ""none""}"
budovy_ksk.226881,Job,48.7402593,21.257886, , ,industrial,"{""web"": ""none""}"
budovy_ksk.226969,School,48.732698,21.255256, , ,kindergarten,"{""web"": ""none""}"
budovy_ksk.226982,Shop,48.7353748,21.255711,Kľúčové centrum, ,retail,"{""web"": ""none""}"
budovy_ksk.227014,Sport,48.7360646,21.2551718, , ,sports_centre,"{""web"": ""none""}"
budovy_ksk.227021,Sport,48.7357203,21.2551049, , ,sports_centre,"{""web"": ""none""}"
budovy_ksk.227024,Sport,48.7360645,21.2550861, , ,sports_centre,"{""web"": ""none""}"
budovy_ksk.227031,Sport,48.7361619,21.2546623, , ,sports_centre,"{""web"": ""none""}"
budovy_ksk.227094,Job,48.7376546,21.2537173,Antik Telecom, ,office,"{""web"": ""none""}"
budovy_ksk.227100,Job,48.7382276,21.2551633, , ,industrial,"{""web"": ""none""}"
budovy_ksk.227164,Job,48.7389735,21.2533738, , ,office,"{""web"": ""none""}"
budovy_ksk.227328,School,48.7380736,21.2557274, , ,school,"{""web"": ""none""}"
budovy_ksk.227330,Shop,48.7394682,21.2550577, , ,commercial,"{""web"": ""none""}"
budovy_ksk.227331,Shop,48.7401161,21.2559848, , ,commercial,"{""web"": ""none""}"
budovy_ksk.227372,Job,48.7392948,21.2550803, , ,office,"{""web"": ""none""}"
budovy_ksk.227421,Shop,48.7396339,21.2512594, , ,retail,"{""web"": ""none""}"
budovy_ksk.227424,School,48.7407061,21.2511076, , ,kindergarten,"{""web"": ""none""}"
budovy_ksk.227425,School,48.7406142,21.2533617, , ,school,"{""web"": ""none""}"
budovy_ksk.227426,School,48.7409421,21.2541244, , ,school,"{""web"": ""none""}"
budovy_ksk.227427,School,48.7409801,21.2535491, , ,school,"{""web"": ""none""}"
budovy_ksk.227434,School,48.740783,21.2538427, , ,school,"{""web"": ""none""}"
budovy_ksk.227474,Job,48.7410768,21.2553029, , ,office,"{""web"": ""none""}"
budovy_ksk.227539,Job,48.7419173,21.252244, , ,industrial,"{""web"": ""none""}"
budovy_ksk.228399,Job,48.7374342,21.2500416, , ,industrial,"{""web"": ""none""}"
budovy_ksk.228462,Job,48.7375041,21.2499848, , ,industrial,"{""web"": ""none""}"
budovy_ksk.229138,School,48.7360691,21.2449575, , ,school,"{""web"": ""none""}"
budovy_ksk.229156,School,48.7346877,21.2461463, , ,school,"{""web"": ""none""}"
budovy_ksk.229737,Shop,48.7363355,21.2441168, , ,retail,"{""web"": ""none""}"
budovy_ksk.229776,Shop,48.7362476,21.2442032, , ,retail,"{""web"": ""none""}"
budovy_ksk.229860,Job,48.7343297,21.2386744, , ,office,"{""web"": ""none""}"
budovy_ksk.229878,Job,48.7339149,21.2382828, , ,office,"{""web"": ""none""}"
budovy_ksk.229893,Shop,48.7300024,21.2402834,Podnikateľské centrum, ,commercial,"{""web"": ""none""}"
budovy_ksk.229895,Shop,48.7304156,21.2422986, , ,commercial,"{""web"": ""none""}"
budovy_ksk.230201,School,48.730289,21.2377586, , ,school,"{""web"": ""none""}"
budovy_ksk.230202,School,48.7306544,21.2377104, , ,school,"{""web"": ""none""}"
budovy_ksk.232019,Shop,48.7188002,21.2450496,Deutsche Telekom IT Solutions, ,commercial,"{""web"": ""none""}"
budovy_ksk.233375,Shop,48.7181279,21.2455459,Cassovar Business Center II, ,commercial,"{""web"": ""none""}"
budovy_ksk.233736,Shop,48.7395391,21.2664672, , ,commercial,"{""web"": ""none""}"
budovy_ksk.251104,Shop,48.7170717,21.2498981,Business Centre Košice, ,commercial,"{""web"": ""none""}"
budovy_ksk.251540,Shop,48.7064376,21.2392213,Billa, ,retail,"{""web"": ""none""}"
budovy_ksk.255197,School,48.7262977,21.2423877, , ,school,"{""web"": ""none""}"
budovy_ksk.256009,Shop,48.7257139,21.2770693, , ,retail,"{""web"": ""none""}"
budovy_ksk.256022,Shop,48.7245401,21.2541072, , ,commercial,"{""web"": ""none""}"
budovy_ksk.258909,Shop,48.7059853,21.2448352,Aston Building, ,commercial,"{""web"": ""none""}"
budovy_ksk.260973,School,48.7040096,21.2457947, , ,school,"{""web"": ""none""}"
budovy_ksk.261219,Shop,48.7305439,21.2432005,HPK business center, ,commercial,"{""web"": ""none""}"
budovy_ksk.261220,Shop,48.7304047,21.2420133, , ,commercial,"{""web"": ""none""}"
budovy_ksk.261221,Shop,48.7303447,21.2421165, , ,commercial,"{""web"": ""none""}"
budovy_ksk.261222,Shop,48.7302924,21.242157, , ,commercial,"{""web"": ""none""}"
budovy_ksk.261223,Shop,48.7302054,21.2422004, , ,commercial,"{""web"": ""none""}"
budovy_ksk.261235,Shop,48.721518,21.2513914, , ,commercial,"{""web"": ""none""}"
budovy_ksk.261286,Shop,48.7167869,21.2546059,Polyfunkčný objekt Grešákova, ,commercial,"{""web"": ""none""}"
budovy_ksk.261268,Shop,48.7037912,21.2350191, , ,commercial,"{""web"": ""none""}"
budovy_ksk.261269,Shop,48.7035406,21.2353327, , ,commercial,"{""web"": ""none""}"
budovy_ksk.261650,Shop,48.7020992,21.218839,Auto-Moto-Mix, ,commercial,"{""web"": ""none""}"
budovy_ksk.261651,Shop,48.7070167,21.2470678,BCT-2, ,commercial,"{""web"": ""none""}"
budovy_ksk.261660,Shop,48.7432754,21.2688695,EcoPoint Office Center, ,commercial,"{""web"": ""none""}"
budovy_ksk.261934,Shop,48.7410611,21.2560408,Fresh Plus, ,retail,"{""web"": ""none""}"
budovy_ksk.262694,Shop,48.7430629,21.2682505,EcoPoint Office Center 2, ,commercial,"{""web"": ""none""}"
budovy_ksk.262918,Transport,48.72345,21.2671571,Železničná stanica Košice, ,train_station,"{""web"": ""none""}"
budovy_ksk.262956,Shop,48.7423492,21.2401891, , ,retail,"{""web"": ""none""}"
budovy_ksk.263115,School,48.7052801,21.247116,"Športová škola Košice, regeneračné stredisko", ,school,"{""web"": ""none""}"
budovy_ksk.263511,Shop,48.7188883,21.268614, , ,retail,"{""web"": ""none""}"
budovy_ksk.263783,School,48.7176802,21.2537155, , ,college,"{""web"": ""none""}"
budovy_ksk.264722,Shop,48.7063454,21.2460766,"R-STANA, s.r.o", ,commercial,"{""web"": ""none""}"
budovy_ksk.264745,Shop,48.7212911,21.2635762, , ,commercial,"{""web"": ""none""}"
budovy_ksk.265463,Transport,48.7227652,21.2673583, , ,train_station,"{""web"": ""none""}"
budovy_ksk.265530,Job,48.7372371,21.2374319,Dom hostí, ,office,"{""web"": ""none""}"
budovy_ksk.265533,Shop,48.7009071,21.2222016, , ,commercial,"{""web"": ""none""}"
budovy_ksk.266625,Shop,48.7271463,21.2554246, , ,commercial,"{""web"": ""none""}"
budovy_ksk.266665,Shop,48.7159531,21.2489567, , ,commercial,"{""web"": ""none""}"
budovy_ksk.266666,Shop,48.7175671,21.265095,Duett II., ,commercial,"{""web"": ""none""}"
budovy_ksk.267092,Job,48.7234727,21.2284236, , ,office,"{""web"": ""none""}"
budovy_ksk.267100,Shop,48.743489,21.2651194, , ,commercial,"{""web"": ""none""}"
budovy_ksk.268525,Shop,48.7173405,21.2644475,Duett I., ,commercial,"{""web"": ""none""}"
budovy_ksk.268559,Shop,48.7400466,21.2564666,Farmfoods, ,retail,"{""web"": ""none""}"
budovy_ksk.269802,Transport,48.7156651,21.2384922, , ,parking,"{""web"": ""none""}"
budovy_ksk.271305,Transport,48.7166027,21.2397359, , ,parking,"{""web"": ""none""}"
budovy_ksk.272188,Shop,48.7335039,21.2613649,Lahoda, ,retail,"{""web"": ""none""}"
budovy_ksk.272720,Shop,48.7213084,21.261619, , ,retail,"{""web"": ""none""}"
budovy_ksk.273286,Job,48.7361347,21.2666061, , ,industrial,"{""web"": ""none""}"
budovy_ksk.273287,Job,48.7368833,21.2639797, , ,industrial,"{""web"": ""none""}"
budovy_ksk.273289,Job,48.7375172,21.2645334, , ,industrial,"{""web"": ""none""}"
budovy_ksk.273292,Job,48.7402739,21.2597651, , ,industrial,"{""web"": ""none""}"
budovy_ksk.273293,Job,48.7404739,21.2594444, , ,industrial,"{""web"": ""none""}"
budovy_ksk.286321,Shop,48.7228103,21.2656719, , ,retail,"{""web"": ""none""}"
budovy_ksk.289944,Shop,48.7309672,21.2417624,OC Merkúr, ,retail,"{""web"": ""none""}"
budovy_ksk.289945,School,48.7095222,21.2408799, , ,school,"{""web"": ""none""}"
budovy_ksk.3,Shop,48.7199868,21.2123105,Lidl, , ,"{""web"": ""none""}"
budovy_ksk.48,Shop,48.7000387,21.2353991,Kaufland, , ,"{""web"": ""none""}"
budovy_ksk.338,Shop,48.7125664,21.2276116,Lidl, , ,"{""web"": ""none""}"
budovy_ksk.13106,Shop,48.7426825,21.2782346,Lidl, , ,"{""web"": ""none""}"
budovy_ksk.29908,Shop,48.7072664,21.2441277,Lidl, , ,"{""web"": ""none""}"
budovy_ksk.178534,Green place,48.7134065,21.2463863,Steel aréna - parkovací dom, , ,"{""web"": ""none""}"
budovy_ksk.256264,Green place,48.7242742,21.2622205,Ostraha parku, , ,"{""web"": ""none""}"
budovy_ksk.256267,Green place,48.7220688,21.2636444,Burger Mestský park, , ,"{""web"": ""none""}"
ustavne_zdrav_zariadenia.fid--1024a340_187273c7313_-527c,Hospital,48.707791,21.257309,"Všeobecná nemocnica, Rastislavova, Košice-Juh, (Univerzitná nemocnica L. Pasteura Košice)","Rastislavova 43, 04190 Košice-Juh, Slovenská republika",všeobecná nemocnica,"{""odborni_zastupcovania"": ""PhDr. Agnesa Stojni\u010dov\u00e1 ako in\u00fd zdravotn\u00edcky pracovn\u00edk - psychol\u00f3g, Mgr. Gabriela Timkov\u00e1 ako p\u00f4rodn\u00e1 asistentka, PhDr. Jana Jackov\u00e1, MPH ako sestra, MUDr. \u013duboslav Be\u0148a , PhD. ako lek\u00e1r, MUDr. Du\u0161an Hrubala, CSc. ako zubn\u00fd lek\u00e1r""}"
ustavne_zdrav_zariadenia.fid--1024a340_187273c7313_-5278,Hospital,48.71281,21.239186,"Mobilný hospic, MUDr. Ladislav Deák, Košice-Západ, (SVETIELKO POMOCI n.o.)","Pražská 4, 04011 Košice-Západ, Slovenská republika",mobilný hospic,"{""odborni_zastupcovania"": ""MUDr. Ladislav De\u00e1k ako lek\u00e1r""}"
ustavne_zdrav_zariadenia.fid--1024a340_187273c7313_-5272,Hospital,48.723221,21.236872,"Všeobecná nemocnica, Trieda SNP, Košice-Západ, (Detská fakultná nemocnica Košice)","Trieda SNP 1, 04011 Košice-Západ, Slovenská republika",všeobecná nemocnica,"{""odborni_zastupcovania"": ""PhDr. Ren\u00e1ta Pop\u00edkov\u00e1 ako sestra, Ing. Dana \u0160ulekov\u00e1 ako nutri\u010dn\u00fd terapeut, doc. MUDr. Milan Kuchta, CSc. ako lek\u00e1r""}"
ustavne_zdrav_zariadenia.fid--1024a340_187273c7313_-5269,Hospital,48.712804,21.257588,"Špecializovaná nemocnica, Skladná, Košice-Juh, (Centrum pre liečbu drogových závislostí Košice)","Skladná 2, 04001 Košice-Juh, Slovenská republika",špecializovaná nemocnica,"{""odborni_zastupcovania"": ""Mgr. Silvia Roha\u013eov\u00e1 ako in\u00fd zdravotn\u00edcky pracovn\u00edk - psychol\u00f3g, Eva Duchov\u00e1 ako sestra, MUDr. Boris Bodn\u00e1r ako lek\u00e1r""}"
ustavne_zdrav_zariadenia.fid--1024a340_187273c7313_-5268,Hospital,48.70883,21.254202,"Špecializovaná nemocnica, Rastislavova, Košice-Juh, (Inštitút nukleárnej a molekulárnej medicíny)","Rastislavova 43, 04001 Košice-Juh, Slovenská republika",špecializovaná nemocnica,"{""odborni_zastupcovania"": ""PhDr. Monika Kocanov\u00e1 ako sestra, doc. MUDr. J\u00e1n Lepej, CSc. ako lek\u00e1r""}"
ustavne_zdrav_zariadenia.fid--1024a340_187273c7313_-5263,Hospital,48.726817,21.250076,"Špecializovaná nemocnica, Strojárenská, Košice-Staré Mesto, (Vysokošpecializovaný odborný ústav geriatrický sv. Lukáša v Košiciach n. o.)","Strojárenská 1099/13, 04001 Košice-Staré Mesto, Slovenská republika",špecializovaná nemocnica,"{""odborni_zastupcovania"": ""Mgr. Silvia Bodn\u00e1rov\u00e1 ako sestra, MUDr. Val\u00e9ria Tarabov\u00e1 ako lek\u00e1r""}"
ustavne_zdrav_zariadenia.fid--1024a340_187273c7313_-5261,Hospital,48.726892,21.250107,"Hospic, Strojárenská, Košice-Staré Mesto, (Vysokošpecializovaný odborný ústav geriatrický sv. Lukáša v Košiciach n. o.)","Strojárenská 13, 04001 Košice-Staré Mesto, Slovenská republika",hospic,"{""odborni_zastupcovania"": ""PhDr. Miriam S\u00fdkorov\u00e1 ako sestra, MUDr. Dominika Novotn\u00e1 ako lek\u00e1r""}"
ustavne_zdrav_zariadenia.fid--1024a340_187273c7313_-525f,Hospital,48.72131,21.240865,"Špecializovaná nemocnica, Ondavská, Košice-Západ, (Východoslovenský ústav srdcových a cievnych chorôb, a.s.)","Ondavská 2385/8, 04011 Košice-Západ, Slovenská republika",špecializovaná nemocnica,"{""odborni_zastupcovania"": ""Mgr. Tatiana Valkov\u00e1 ako sestra, MUDr. \u0160tefan Luka\u010d\u00edn, PhD. ako lek\u00e1r""}"
ustavne_zdrav_zariadenia.fid--1024a340_187273c7313_-525d,Hospital,48.709149,21.255333,"Špecializovaná nemocnica, Rastislavova, Košice-Juh, (Východoslovenský onkologický ústav, a.s.)","Rastislavova 785/43, 04001 Košice-Juh, Slovenská republika",špecializovaná nemocnica,"{""odborni_zastupcovania"": ""MUDr. Igor Jen\u010do ako lek\u00e1r, PhDr. \u013duba Palkov\u00e1, PhD., MPH ako sestra""}"
ustavne_zdrav_zariadenia.fid--1024a340_187273c7313_-525c,Hospital,48.728042,21.259114,"Všeobecná nemocnica, Masarykova, Košice-Staré Mesto, (Železničné zdravotníctvo Košice, s.r.o.)","Masarykova 9, 04001 Košice-Staré Mesto, Slovenská republika",všeobecná nemocnica,"{""odborni_zastupcovania"": ""Mgr. Eva Kav\u010d\u00e1kov\u00e1 ako fyzioterapeut, Mgr. M\u00e1ra Len\u00e1rtov\u00e1, MPH ako sestra, MUDr. M\u00e1ria Gruliingov\u00e1 ako lek\u00e1r""}"
ustavne_zdrav_zariadenia.fid--1024a340_187273c7313_-525b,Hospital,48.71281,21.239186,"Mobilný hospic, MUDr. Ladislav Deák, Košice-Západ, (SVETIELKO POMOCI n.o.)","Pražská 4, 04011 Košice-Západ, Slovenská republika",mobilný hospic,"{""odborni_zastupcovania"": ""MUDr. Ladislav De\u00e1k ako lek\u00e1r""}"
ustavne_zdrav_zariadenia.fid--1024a340_187273c7313_-5251,Hospital,48.722164,21.237415,"Všeobecná nemocnica, Trieda SNP, Košice-Západ, (Detská fakultná nemocnica Košice)","Trieda SNP 457/1, 04011 Košice-Západ, Slovenská republika",všeobecná nemocnica,"{""odborni_zastupcovania"": ""PhDr. Miriam Mati, MPH ako sestra, MUDr. Jana Kaiferov\u00e1, PhD. ako zubn\u00fd lek\u00e1r, doc. MUDr. Milan Kuchta, CSc. ako lek\u00e1r""}"
ustavne_zdrav_zariadenia.fid--1024a340_187273c7313_-5250,Hospital,48.709149,21.255333,"Všeobecná nemocnica, Rastislavova, Košice-Juh, (Univerzitná nemocnica L. Pasteura Košice)","Rastislavova 785/43, 04001 Košice-Juh, Slovenská republika",všeobecná nemocnica,"{""odborni_zastupcovania"": ""PhDr. Ingrida Lasokov\u00e1 ako p\u00f4rodn\u00e1 asistentka, PhDr. Alena Kellnerov\u00e1, MPH, DiS ako sestra, MUDr. Stanislav Andrejko ako zubn\u00fd lek\u00e1r, PhDr. Agnesa Stojni\u010dov\u00e1 ako in\u00fd zdravotn\u00edcky pracovn\u00edk - psychol\u00f3g, MUDr. \u013duboslav Be\u0148a , PhD. ako lek\u00e1r""}"
ustavne_zdrav_zariadenia.fid--1024a340_187273c7313_-524f,Hospital,48.722164,21.237415,"Všeobecná nemocnica, Trieda SNP, Košice-Západ, (Univerzitná nemocnica L. Pasteura Košice)","Trieda SNP 457/1, 04011 Košice-Západ, Slovenská republika",všeobecná nemocnica,"{""odborni_zastupcovania"": ""PhDr. Agnesa Stojni\u010dov\u00e1 ako in\u00fd zdravotn\u00edcky pracovn\u00edk - psychol\u00f3g, PhDr. Ingrida Lasokov\u00e1 ako p\u00f4rodn\u00e1 asistentka, PhDr. Alena Kellnerov\u00e1, MPH, DiS ako sestra, MUDr. \u013duboslav Be\u0148a , PhD. ako lek\u00e1r, MUDr. Stanislav Andrejko ako zubn\u00fd lek\u00e1r""}"
ustavne_zdrav_zariadenia.fid--1024a340_187273c7313_-524e,Hospital,48.725707,21.251402,"Špecializovaná nemocnica, Bačíkova, Košice-Staré Mesto, (Akadémia Košice, n.o.)","Bačíkova 321/7, 04001 Košice-Staré Mesto, Slovenská republika",špecializovaná nemocnica,"{""odborni_zastupcovania"": ""MUDr. Andrej Jen\u010da, PhD., MBA ako lek\u00e1r, MUDr. Adri\u00e1na Petr\u00e1\u0161ov\u00e1, PhD. ako zubn\u00fd lek\u00e1r, Mgr. Anna Va\u0161utov\u00e1 ako sestra, MUDr. \u0160tefan Kujan\u00edk, MBA ako lek\u00e1r""}"
lekarne_ksk.fid--1024a340_187273c7313_-5edd,Drug store,48.717822,21.250198,Lekáreň ART,"Čajakova 1192/2, 04001 Košice-Staré Mesto, Slovenská republika",verejná lekáreň,"{""odborni_zastupcovania"": ""Mgr. M\u00e1ria \u0160eb\u00edkov\u00e1""}"
lekarne_ksk.fid--1024a340_187273c7313_-5eda,Drug store,48.707026,21.257608,Lekáreň AVION,"Rastislavova 786/45, 04001 Košice-Juh, Slovenská republika",verejná lekáreň,"{""odborni_zastupcovania"": ""Mgr. Sl\u00e1vka Bar\u010dovsk\u00e1""}"
lekarne_ksk.fid--1024a340_187273c7313_-5ed8,Drug store,48.711685,21.259759,Lekáreň BELLIS,"Južná trieda 2299/27, 04001 Košice-Juh, Slovenská republika",verejná lekáreň,"{""odborni_zastupcovania"": ""Mgr. Jana Medl\u00edkov\u00e1""}"
lekarne_ksk.fid--1024a340_187273c7313_-5ed7,Drug store,48.728767,21.241499,Lekáreň BETULA,"Letná 11/45, 04001 Košice-Sever, Slovenská republika",verejná lekáreň,"{""odborni_zastupcovania"": ""Mgr. Michaela Petrovi\u010dov\u00e1""}"
lekarne_ksk.fid--1024a340_187273c7313_-5ed5,Drug store,48.722641,21.252702,Lekáreň CASSIA,"Poštová 542/15, 04001 Košice-Staré Mesto, Slovenská republika",verejná lekáreň,"{""odborni_zastupcovania"": ""PharmDr. Daniela \u0160ikorsk\u00e1""}"
lekarne_ksk.fid--1024a340_187273c7313_-5ecd,Drug store,48.728294,21.260174,Lekáreň GRAM,"Masarykova 1639/17, 04001 Košice-Staré Mesto, Slovenská republika",verejná lekáreň,"{""odborni_zastupcovania"": ""Mgr. Adriana Michalikov\u00e1""}"
lekarne_ksk.fid--1024a340_187273c7313_-5ec7,Drug store,48.707026,21.257609,Lekáreň BOTICA,"Rastislavova 786/45, 04001 Košice-Juh, Slovenská republika",verejná lekáreň,"{""odborni_zastupcovania"": ""PharmDr. Monika Hu\u013eov\u00e1""}"
lekarne_ksk.fid--1024a340_187273c7313_-5ec1,Drug store,48.726774,21.254544,Lekáreň MARATÓN,"Hlavná 61/116, 04001 Košice-Staré Mesto, Slovenská republika",verejná lekáreň,"{""odborni_zastupcovania"": ""PharmDr. Viera Mazurov\u00e1""}"
lekarne_ksk.fid--1024a340_187273c7313_-5ebc,Drug store,48.720565,21.240898,Lekáreň MILIANA,"Ondavská 1796/10/C, 04011 Košice-Západ, Slovenská republika",verejná lekáreň,"{""odborni_zastupcovania"": ""PharmDr. Anna D\u00f3ciov\u00e1""}"
lekarne_ksk.fid--1024a340_187273c7313_-5eb7,Drug store,48.714765,21.216094,Lekáreň Dr. Max,"Cottbuská 1581/13, 04023 Košice-Sídlisko KVP, Slovenská republika",verejná lekáreň,"{""odborni_zastupcovania"": ""Mgr. Viktor Krokavec""}"
lekarne_ksk.fid--1024a340_187273c7313_-5eb4,Drug store,48.745311,21.246219,Lekáreň PHARMACOPOLA,"Cesta pod Hradovou 810/13A, 04001 Košice-Sever, Slovenská republika",verejná lekáreň,"{""odborni_zastupcovania"": ""PhMr. Magdal\u00e9na Siklenkov\u00e1""}"
lekarne_ksk.fid--1024a340_187273c7313_-5eb0,Drug store,48.720606,21.258706,Lekáreň Dr. Max,"Mlynská 104/1, 04001 Košice-Staré Mesto, Slovenská republika",verejná lekáreň,"{""odborni_zastupcovania"": ""Mgr. Martina Balogov\u00e1""}"
lekarne_ksk.fid--1024a340_187273c7313_-5eae,Drug store,48.710226,21.232813,Lekáreň BENU,"Gudernova 292/3, 04011 Košice-Západ, Slovenská republika",verejná lekáreň,"{""odborni_zastupcovania"": ""Mgr. Marta \u0160olt\u00e9sov\u00e1""}"
lekarne_ksk.fid--1024a340_187273c7313_-5ea7,Drug store,48.715359,21.230156,Lekáreň SYNDIPHARMA,"Brigádnická 2276/2, 04011 Košice-Západ, Slovenská republika",verejná lekáreň,"{""odborni_zastupcovania"": ""PharmDr. Danica Bo\u0161ansk\u00e1""}"
lekarne_ksk.fid--1024a340_187273c7313_-5ea5,Drug store,48.70813,21.237199,Lekáreň TERASA,"Trieda SNP 339/88, 04011 Košice-Západ, Slovenská republika",verejná lekáreň,"{""odborni_zastupcovania"": ""Mgr. Veronika Babin\u010d\u00e1kov\u00e1""}"
lekarne_ksk.fid--1024a340_187273c7313_-5ea1,Drug store,48.698646,21.251595,Lekáreň BENU,"OC CASSOVIA, Pri prachárni 3709/2, 04011 Košice-Juh, Slovenská republika",verejná lekáreň,"{""odborni_zastupcovania"": ""Mgr. J\u00falia Surov\u00e1""}"
lekarne_ksk.fid--1024a340_187273c7313_-5ea0,Drug store,48.73383,21.283882,Lekáreň TORYSA,"Lackova 790/13, 04018 Košice-Krásna, Slovenská republika",verejná lekáreň,"{""odborni_zastupcovania"": ""PharmDr. Marianna \u017dit\u0148anov\u00e1""}"
lekarne_ksk.fid--1024a340_187273c7313_-5e9e,Drug store,48.72161,21.261904,Lekáreň U DAMIÁNA,"Mlynská 898/26, 04001 Košice-Staré Mesto, Slovenská republika",verejná lekáreň,"{""odborni_zastupcovania"": ""Mgr. Milica Juh\u00e1szov\u00e1""}"
lekarne_ksk.fid--1024a340_187273c7313_-5e99,Drug store,48.711591,21.21398,Lekáreň UNION PLUS,"Moskovská Trieda 3117/1, 04023 Košice-Sídlisko KVP, Slovenská republika",verejná lekáreň,"{""odborni_zastupcovania"": ""PharmDr. \u017daneta Vyso\u010danov\u00e1""}"
lekarne_ksk.fid--1024a340_187273c7313_-5e98,Drug store,48.727557,21.246434,Lekáreň VÁHY,"Zimná 1147/20, 04001 Košice-Staré Mesto, Slovenská republika",verejná lekáreň,"{""odborni_zastupcovania"": ""Mgr. Sv\u011btlana Nut\u00e1rov\u00e1""}"
lekarne_ksk.fid--1024a340_187273c7313_-5e95,Drug store,48.707854,21.259864,Lekáreň ZDRAVOMAX,"Mudroňova 625/29, 04001 Košice-Juh, Slovenská republika",verejná lekáreň,"{""odborni_zastupcovania"": ""Mgr. Martina Megelov\u00e1""}"
lekarne_ksk.fid--1024a340_187273c7313_-5e94,Drug store,48.735692,21.247665,Lekáreň ZELENÁ LEKÁREŇ,"Komenského Park 69/61, 04001 Košice-Sever, Slovenská republika",verejná lekáreň,"{""odborni_zastupcovania"": ""Mgr. Zuzana Nezbedov\u00e1""}"
lekarne_ksk.fid--1024a340_187273c7313_-5e89,Drug store,48.715256,21.238465,Lekáreň BENU,"OC Galéria, Toryská 2297/5, 04011 Košice-Západ, Slovenská republika",verejná lekáreň,"{""odborni_zastupcovania"": ""Mgr. O\u013ega Lechmanov\u00e1""}"
lekarne_ksk.fid--1024a340_187273c7313_-5e88,Drug store,48.723538,21.258569,Lekáreň ZDRAVIE,"Kováčska 255/37, 04001 Košice-Staré Mesto, Slovenská republika",verejná lekáreň,"{""odborni_zastupcovania"": ""Mgr. M\u00e1ria B\u00edre\u0161ov\u00e1""}"
lekarne_ksk.fid--1024a340_187273c7313_-5e87,Drug store,48.695907,21.239004,Lekáreň Dr. Max,"Moldavská cesta 2700/32, 04011 Košice-Juh, Slovenská republika",verejná lekáreň,"{""odborni_zastupcovania"": ""PharmDr. Viera \u0160paldov\u00e1""}"
lekarne_ksk.fid--1024a340_187273c7313_-5e84,Drug store,48.721242,21.23872,Lekáreň ZORA,"Ondavská 2/A, 04011 Košice-Západ, Slovenská republika",verejná lekáreň,"{""odborni_zastupcovania"": ""PharmDr. Monika Fo\u013evarsk\u00e1""}"
lekarne_ksk.fid--1024a340_187273c7313_-5e82,Drug store,48.726566,21.245656,Lekáreň TIP – TOP,"Československej armády 1175/18, 04001 Košice-Staré Mesto, Slovenská republika",verejná lekáreň,"{""odborni_zastupcovania"": ""PharmDr. Matej Koles\u00e1r""}"
lekarne_ksk.fid--1024a340_187273c7313_-5e81,Drug store,48.717054,21.268997,Lekáreň NA KRIVEJ,"Krivá 2986/17, 04001 Košice-Juh, Slovenská republika",verejná lekáreň,"{""odborni_zastupcovania"": ""PharmDr. Du\u0161an Pribula""}"
lekarne_ksk.fid--1024a340_187273c7313_-5e7c,Drug store,48.700056,21.236524,Lekáreň Dr. MAX,"OD Kaufland, Popradská 2277/92, 04011 Košice-Západ, Slovenská republika",verejná lekáreň,"{""odborni_zastupcovania"": ""Mgr. Adri\u00e1na Hricov\u00e1""}"
lekarne_ksk.fid--1024a340_187273c7313_-5e79,Drug store,48.713658,21.236718,Lekáreň PRI DATASE,"Toryská 2288, 04011 Košice-Západ, Slovenská republika",verejná lekáreň,"{""odborni_zastupcovania"": ""Mgr. Michala Bir\u010d\u00e1kov\u00e1""}"
lekarne_ksk.fid--1024a340_187273c7313_-5e78,Drug store,48.708961,21.25786,Lekáreň ADONAI,"Smetanova 773/2, 04001 Košice-Juh, Slovenská republika",verejná lekáreň,"{""odborni_zastupcovania"": ""Mgr. Elena Gre\u0161\u0161ov\u00e1""}"
lekarne_ksk.fid--1024a340_187273c7313_-5e6d,Drug store,48.713561,21.230944,Lekáreň TORYSKÁ,"Toryská 275/1, 04011 Košice-Západ, Slovenská republika",verejná lekáreň,"{""odborni_zastupcovania"": ""PharmDr. Iveta \u0160tenkov\u00e1""}"
lekarne_ksk.fid--1024a340_187273c7313_-5e68,Drug store,48.71296,21.211501,Lekáreň ISKRA,"Čordákova 1207/2, 04023 Košice-Sídlisko KVP, Slovenská republika",verejná lekáreň,"{""odborni_zastupcovania"": ""Mgr. M\u00e1ria Babin\u010d\u00e1kov\u00e1""}"
lekarne_ksk.fid--1024a340_187273c7313_-5e67,Drug store,48.709127,21.204696,Lekáreň MYSLAVA,"Myslavská 644/190A, 04016 Košice-Myslava, Slovenská republika",pobočka verejnej lekárne,"{""odborni_zastupcovania"": ""PharmDr. Helena Svobodov\u00e1""}"
lekarne_ksk.fid--1024a340_187273c7313_-5e5a,Drug store,48.722164,21.237415,VZP PROTETIKA,"Trieda SNP 457/1, 04011 Košice-Západ, Slovenská republika",výdajňa zdravotníckych pomôcok,"{""odborni_zastupcovania"": ""Dana Kov\u00e1\u010dov\u00e1""}"
lekarne_ksk.fid--1024a340_187273c7313_-5e58,Drug store,48.727612,21.249436,VZP SANITAS -  KE,"Jesenná 1140/9, 04001 Košice-Staré Mesto, Slovenská republika",výdajňa zdravotníckych pomôcok,"{""odborni_zastupcovania"": ""M\u00e1ria Marczellov\u00e1""}"
lekarne_ksk.fid--1024a340_187273c7313_-5e57,Drug store,48.740626,21.243336,VZP SPOT,"Čermeľská cesta 1452/1, 04001 Košice-Sever, Slovenská republika",výdajňa zdravotníckych pomôcok,"{""odborni_zastupcovania"": ""Helena Kurutzov\u00e1""}"
lekarne_ksk.fid--1024a340_187273c7313_-5e56,Drug store,48.720563,21.264892,VZP STOMIA – ZP s.r.o.,"Staničné námestie 2906/1, 04001 Košice-Staré Mesto, Slovenská republika",výdajňa zdravotníckych pomôcok,"{""odborni_zastupcovania"": ""Mgr. Andrea Olej\u00e1rov\u00e1""}"
lekarne_ksk.fid--1024a340_187273c7313_-5e55,Drug store,48.715694,21.259353,VZP VICTORIA,"Fejova 1528/1, 04001 Košice-Juh, Slovenská republika",výdajňa zdravotníckych pomôcok,"{""odborni_zastupcovania"": ""Janka Betkov\u00e1""}"
lekarne_ksk.fid--1024a340_187273c7313_-5e53,Drug store,48.722164,21.237415,VZP MEDI COOL,"Trieda SNP 457/1, 04011 Košice-Západ, Slovenská republika",výdajňa zdravotníckych pomôcok,"{""odborni_zastupcovania"": ""MVDr. M\u00e1ria Boj\u010d\u00edkov\u00e1""}"
lekarne_ksk.fid--1024a340_187273c7313_-5e51,Drug store,48.709794,21.249236,VZP  EMPATIA,"Blesková 1698/12, 04001 Košice-Juh, Slovenská republika",výdajňa zdravotníckych pomôcok,"{""odborni_zastupcovania"": ""PharmDr. L\u00edvia Pichov\u00e1""}"
lekarne_ksk.fid--1024a340_187273c7313_-5e50,Drug store,48.715279,21.216736,VZP MEDULIENKA,"Cottbuská 1581/27, 04022 Košice-Sídlisko KVP, Slovenská republika",výdajňa zdravotníckych pomôcok,"{""odborni_zastupcovania"": ""Reg\u00edna Fecko\u00e1""}"
lekarne_ksk.fid--1024a340_187273c7313_-5e4e,Drug store,48.71631,21.260264,Lekáreň Dr. MAX,"Štúrova 1/2, 04001 Košice-Juh, Slovenská republika",verejná lekáreň,"{""odborni_zastupcovania"": ""PharmDr. Monika Langerov\u00e1""}"
lekarne_ksk.fid--1024a340_187273c7313_-5e41,Drug store,48.73974,21.247896,Lekáreň Univerzitná lekáreň Univerzity veterinárskeho lekárstva a farmácie v Košiciach,"Komenského 68/73, 04001 Košice-Sever, Slovenská republika",verejná lekáreň,"{""odborni_zastupcovania"": ""Mgr. Michal Feh\u00e9r""}"
lekarne_ksk.fid--1024a340_187273c7313_-5e40,Drug store,48.733999,21.250172,Lekáreň Dr. MAX,"Tomašíkova 151/8, 04001 Košice-Sever, Slovenská republika",verejná lekáreň,"{""odborni_zastupcovania"": ""PharmDr. Erika Blizmanov\u00e1""}"
lekarne_ksk.fid--1024a340_187273c7313_-5e3f,Drug store,48.730961,21.243015,Lekáreň Dr. MAX,"Němcovej 28/28, 04001 Košice-Sever, Slovenská republika",verejná lekáreň,"{""odborni_zastupcovania"": ""Mgr. Marianna Skalick\u00e1""}"
lekarne_ksk.fid--1024a340_187273c7313_-5e3d,Drug store,48.72812,21.259463,Lekáreň Dr. MAX,"Masarykova 1632/9, 04001 Košice-Staré Mesto, Slovenská republika",verejná lekáreň,"{""odborni_zastupcovania"": ""PharmDr. Miriam Vavrekov\u00e1""}"
lekarne_ksk.fid--1024a340_187273c7313_-5e3a,Drug store,48.721525,21.267601,Lekáreň Dr. MAX,"Staničné námestie 1458/9, 04001 Košice-Staré Mesto, Slovenská republika",verejná lekáreň,"{""odborni_zastupcovania"": ""PharmDr. Jarmila Bia\u010dkov\u00e1""}"
lekarne_ksk.fid--1024a340_187273c7313_-5e38,Drug store,48.723494,21.256776,Lekáreň ZDRAVOFARM,"Hlavná 83/81, 04001 Košice-Staré Mesto, Slovenská republika",verejná lekáreň,"{""odborni_zastupcovania"": ""PharmDr. Erika Rodov\u00e1""}"
lekarne_ksk.fid--1024a340_187273c7313_-5e37,Drug store,48.707026,21.257608,VZP - FIDESA,"Rastislavova 786/45, 04001 Košice-Juh, Slovenská republika",výdajňa zdravotníckych pomôcok,"{""odborni_zastupcovania"": ""M\u00e1ria Salanciov\u00e1""}"
lekarne_ksk.fid--1024a340_187273c7313_-5e35,Drug store,48.722244,21.254884,Lekáreň sv. TEREZKY,"Mäsiarska 450/30, 04001 Košice-Staré Mesto, Slovenská republika",verejná lekáreň,"{""odborni_zastupcovania"": ""Mgr. M\u00e1ria Hor\u0161ul\u00e1kov\u00e1""}"
lekarne_ksk.fid--1024a340_187273c7313_-5e33,Drug store,48.72131,21.240865,Lekáreň VÚSCH,"Ondavská 2385/8, 04011 Košice-Západ, Slovenská republika",verejná lekáreň,"{""odborni_zastupcovania"": ""Mgr. Radoslava Semanov\u00e1""}"
lekarne_ksk.fid--1024a340_187273c7313_-5e31,Drug store,48.715613,21.212671,Lekáreň Dr. MAX,"OC BILLA,  3112, 04015 Košice-Sídlisko KVP, Slovenská republika",verejná lekáreň,"{""odborni_zastupcovania"": ""PharmDr. Jakub Laba\u0161""}"
lekarne_ksk.fid--1024a340_187273c7313_-5e2e,Drug store,48.717951,21.256237,Lekáreň Dr. MAX,"Murgašova 1390/1, 04001 Košice-Staré Mesto, Slovenská republika",verejná lekáreň,"{""odborni_zastupcovania"": ""Mgr. Krist\u00edna Hovorkov\u00e1""}"
lekarne_ksk.fid--1024a340_187273c7313_-5e2d,Drug store,48.718582,21.238111,VZP ZUZKIN PARK,"OC LUNÍK I, Zuzkin Park 6, 04011 Košice-Západ, Slovenská republika",výdajňa zdravotníckych pomôcok,"{""odborni_zastupcovania"": ""Mgr. Eva \u0160\u00e1ndorov\u00e1""}"
lekarne_ksk.fid--1024a340_187273c7313_-5e2b,Drug store,48.714765,21.216094,Lekáreň ALBA,"Cottbuská 1581/13, 04023 Košice-Sídlisko KVP, Slovenská republika",verejná lekáreň,"{""odborni_zastupcovania"": ""Mgr. Katar\u00edna Tk\u00e1\u010dov\u00e1""}"
lekarne_ksk.fid--1024a340_187273c7313_-5e27,Drug store,48.721874,21.25222,Lekáreň APOTHÉQUE,"Moyzesova 1035/32, 04001 Košice-Staré Mesto, Slovenská republika",verejná lekáreň,"{""odborni_zastupcovania"": ""Mgr. Katar\u00edna Hud\u00e1kov\u00e1""}"
lekarne_ksk.fid--1024a340_187273c7313_-5e25,Drug store,48.715256,21.238465,Lekáreň Dr. Max,"Toryská 2297/5, 04011 Košice-Západ, Slovenská republika",verejná lekáreň,"{""odborni_zastupcovania"": ""PharmDr. Miroslav Knap\u010dok""}"
lekarne_ksk.fid--1024a340_187273c7313_-5e22,Drug store,48.726199,21.255319,Lekáreň Dr. MAX,"Hlavná 66/115, 04001 Košice-Staré Mesto, Slovenská republika",verejná lekáreň,"{""odborni_zastupcovania"": ""Mgr. \u0160tefan Klanica""}"
lekarne_ksk.fid--1024a340_187273c7313_-5e1f,Drug store,48.72264,21.248701,Lekáreň LIPA,"Kuzmányho 1188/29, 04001 Košice-Staré Mesto, Slovenská republika",verejná lekáreň,"{""odborni_zastupcovania"": ""PharmDr. Petra Olexi\u010dakov\u00e1""}"
lekarne_ksk.fid--1024a340_187273c7313_-5e1e,Drug store,48.727612,21.249436,Lekáreň VIOLA,"Jesenná 1140/9, 04001 Košice-Staré Mesto, Slovenská republika",verejná lekáreň,"{""odborni_zastupcovania"": ""Mgr. Petra Havrilov\u00e1""}"
lekarne_ksk.fid--1024a340_187273c7313_-5e19,Drug store,48.715814,21.231377,VZP MEDSTAR,"Brigádnická 2276/2A, 04011 Košice-Západ, Slovenská republika",výdajňa zdravotníckych pomôcok,"{""odborni_zastupcovania"": ""Klaudia Karahutov\u00e1""}"
lekarne_ksk.fid--1024a340_187273c7313_-5e18,Drug store,48.726566,21.245657,Lekáreň SCHNEIDER,"Československej armády 1175/18, 04001 Košice-Staré Mesto, Slovenská republika",verejná lekáreň,"{""odborni_zastupcovania"": ""Mgr. Katar\u00edna R\u00fa\u0161ov\u00e1""}"
lekarne_ksk.fid--1024a340_187273c7313_-5e15,Drug store,48.708961,21.25786,VZP VITALENA,"Smetanova 773/2, 04001 Košice-Juh, Slovenská republika",výdajňa zdravotníckych pomôcok,"{""odborni_zastupcovania"": ""Mgr. Alena Meli\u0161ov\u00e1 -\u010cugov\u00e1""}"
lekarne_ksk.fid--1024a340_187273c7313_-5e11,Drug store,48.718419,21.264905,Lekáreň SCHNEIDER,"Protifašistických Bojovníkov  3378/11,  Košice-Staré Mesto, Slovenská republika",verejná lekáreň,"{""odborni_zastupcovania"": ""PharmDr. Em\u00edlia Z\u00e1potokov\u00e1""}"
lekarne_ksk.fid--1024a340_187273c7313_-5e10,Drug store,48.739412,21.251163,Lekáreň U SPASITEĽA,"Národná trieda 211/56, 04001 Košice-Sever, Slovenská republika",verejná lekáreň,"{""odborni_zastupcovania"": ""PharmDr. Jana Koryt\u00e1rov\u00e1""}"
lekarne_ksk.fid--1024a340_187273c7313_-5e0f,Drug store,48.716418,21.268246,Lekáreň PRIMA,"Krivá 1066/23, 04001 Košice-Juh, Slovenská republika",verejná lekáreň,"{""odborni_zastupcovania"": ""PharmDr. Anna \u010ci\u017em\u00e1rov\u00e1""}"
lekarne_ksk.fid--1024a340_187273c7313_-5e0a,Drug store,48.708788,21.223693,Lekáreň IZIS,"Bratislavská 1949/46, 04011 Košice-Západ, Slovenská republika",verejná lekáreň,"{""odborni_zastupcovania"": ""PharmDr. Wael Rezk""}"
lekarne_ksk.fid--1024a340_187273c7313_-5e07,Drug store,48.723207,21.267122,Lekáreň APOTHEKA s.r.o.,"Železničná stanica, Staničné námestie 1459/11, 04001 Košice-Staré Mesto, Slovenská republika",verejná lekáreň,"{""odborni_zastupcovania"": ""Mgr. Monika Luk\u00e1\u010dov\u00e1""}"
lekarne_ksk.fid--1024a340_187273c7313_-5e01,Drug store,48.707581,21.257416,Nemocničná lekáreň s výdajom verejnosti,"Univerzitná nemocnica L. Pasteura Košice, Trieda SNP 457/1, 04011 Košice-Západ, Slovenská republika",nemocničná lekáreň s výdajom verejnosti,"{""odborni_zastupcovania"": ""PharmDr. Irena Andrejkov\u00e1""}"
lekarne_ksk.fid--1024a340_187273c7313_-5e00,Drug store,48.707791,21.257309,Nemocničná lekáreň s výdajom verejnosti,"Rastislavova 43, 04191 Košice-Juh, Slovenská republika",nemocničná lekáreň s výdajom verejnosti,"{""odborni_zastupcovania"": ""Mgr. Ren\u00e1ta B\u00e9re\u0161ov\u00e1""}"
lekarne_ksk.fid--1024a340_187273c7313_-5dfc,Drug store,48.72198,21.255017,ZDRAVKO,"Mäsiarska 445/26, 04001 Košice-Staré Mesto, Slovenská republika",výdajňa zdravotníckych pomôcok,"{""odborni_zastupcovania"": ""Mgr. Lenka Pan\u010durov\u00e1""}"
lekarne_ksk.fid--1024a340_187273c7313_-5df9,Drug store,48.72276,21.266124,Lekáreň PARK,"Staničné námestie 1460/13, 04001 Košice-Staré Mesto, Slovenská republika",verejná lekáreň,"{""odborni_zastupcovania"": ""PharmDr. Vladim\u00edr Hr\u00edb""}"
lekarne_ksk.fid--1024a340_187273c7313_-5df8,Drug store,48.740615,21.266921,Lekáreň Dr. Max,"Trolejbusová 2859/1, 04001 Košice-Džungľa, Slovenská republika",verejná lekáreň,"{""odborni_zastupcovania"": ""Mgr. Simona Bal\u00e1\u017eov\u00e1""}"
lekarne_ksk.fid--1024a340_187273c7313_-5df6,Drug store,48.734801,21.253739,Lekáreň Kamilka,"Národná trieda 214/27, 04001 Košice-Sever, Slovenská republika",verejná lekáreň,"{""odborni_zastupcovania"": ""Mgr. Pavol Lupt\u00e1k""}"
lekarne_ksk.fid--1024a340_187273c7313_-5df3,Drug store,48.705531,21.245224,Lekáreň Rondo Drive In,"Werferova 2246/3, 04011 Košice-Juh, Slovenská republika",verejná lekáreň,"{""odborni_zastupcovania"": ""Mgr. Ildik\u00f3 Klemov\u00e1""}"
lekarne_ksk.fid--1024a340_187273c7313_-5dec,Drug store,48.707167,21.260522,Lekáreň Dr. Max,"Panelová 536/2, 04001 Košice-Juh, Slovenská republika",verejná lekáreň,"{""odborni_zastupcovania"": ""Mgr. Daniela Hanz\u00f3kov\u00e1""}"
lekarne_ksk.fid--1024a340_187273c7313_-5de9,Drug store,48.720537,21.211682,Lekáreň Dr. Max,"Jána Pavla II. 3130/5, 04023 Košice-Sídlisko KVP, Slovenská republika",verejná lekáreň,"{""odborni_zastupcovania"": ""PharmDr. Michaela Krokavcov\u00e1""}"
lekarne_ksk.fid--1024a340_187273c7313_-5de8,Drug store,48.728845,21.242944,Lekáreň BENU,"Letná 1158/40, 04001 Košice-Staré Mesto, Slovenská republika",verejná lekáreň,"{""odborni_zastupcovania"": ""Mgr. Zlatica Janekov\u00e1""}"
lekarne_ksk.fid--1024a340_187273c7313_-5de5,Drug store,48.710306,21.232334,VZP ZDRAVAB,"Gudernova 293/8, 04011 Košice-Západ, Slovenská republika",výdajňa zdravotníckych pomôcok,"{""odborni_zastupcovania"": ""Al\u017ebeta Bri\u0161k\u00e1rov\u00e1""}"
lekarne_ksk.fid--1024a340_187273c7313_-5de4,Drug store,48.739504,21.282459,VZP Zdravotel,"Maršala Koneva 985/1, 04022 Košice-Dargov.hrdinov, Slovenská republika",výdajňa zdravotníckych pomôcok,"{""odborni_zastupcovania"": ""\u013duboslava Stankov\u00e1""}"
lekarne_ksk.fid--1024a340_187273c7313_-5de3,Drug store,48.740974,21.256141,Lekáreň Park Anička,"Pod šiancom 4080/1D, 04001 Košice-Sever, Slovenská republika",verejná lekáreň,"{""odborni_zastupcovania"": ""Mgr. Andrea Peleyov\u00e1""}"
lekarne_ksk.fid--1024a340_187273c7313_-5dd5,Drug store,48.71661,21.210523,Lekáreň KLAS - KVP,"Hemerkova 1682/39, 04023 Košice-Sídlisko KVP, Slovenská republika",verejná lekáreň,"{""odborni_zastupcovania"": ""PharmDr. Zuzana Keke\u0148\u00e1kov\u00e1""}"
lekarne_ksk.fid--1024a340_187273c7313_-5dd0,Drug store,48.727288,21.251547,Lekáreň PRI RADNICI,"Strojárenská 3426/11, 04001 Košice-Staré Mesto, Slovenská republika",verejná lekáreň,"{""odborni_zastupcovania"": ""PharmDr. Inge Rusov\u00e1""}"
lekarne_ksk.fid--1024a340_187273c7313_-5dcf,Drug store,48.707827,21.24649,Lekáreň SLNEČNICA,"Moldavská cesta 21/A, 04001 Košice-Západ, Slovenská republika",verejná lekáreň,"{""odborni_zastupcovania"": ""Mgr. Alexandra Vrbovsk\u00e1""}"
lekarne_ksk.fid--1024a340_187273c7313_-5dce,Drug store,48.71779,21.247026,Lekáreň AGEL Cassopharm,"Žriedlová 3384/11, 04001 Košice-Staré Mesto, Slovenská republika",verejná lekáreň,"{""odborni_zastupcovania"": ""PharmDr. Valent\u00edna Pribulov\u00e1""}"
lekarne_ksk.fid--1024a340_187273c7313_-5dcd,Drug store,48.715814,21.231377,Lekáreň Dr.Max,"Brigádnická 2276/2A, 04011 Košice-Západ, Slovenská republika",verejná lekáreň,"{""odborni_zastupcovania"": ""PharmDr. Adriana Pala\u0161\u010d\u00e1kov\u00e1""}"
lekarne_ksk.fid--1024a340_187273c7313_-5dc9,Drug store,48.716911,21.259145,Lekáreň BENU,"OD Dargov, Štúrova 787/1, 04001 Košice-Staré Mesto, Slovenská republika",verejná lekáreň,"{""odborni_zastupcovania"": ""Mgr. Tom\u00e1\u0161 Moroz""}"
lekarne_ksk.fid--1024a340_187273c7313_-5dc7,Drug store,48.721414,21.238312,Lekáreň Schneider,"Ondavská 1878/4A, 04011 Košice-Západ, Slovenská republika",verejná lekáreň,"{""odborni_zastupcovania"": ""Mgr. Zuzana Novotn\u00e1""}"
lekarne_ksk.fid--1024a340_187273c7313_-5dc3,Drug store,48.718478,21.231823,Lekáreň BENU,"Hronská 197/10, 04011 Košice-Západ, Slovenská republika",verejná lekáreň,"{""odborni_zastupcovania"": ""Mgr. Jakub Slab\u00fd""}"
lekarne_ksk.fid--1024a340_187273c7313_-5dc2,Drug store,48.725577,21.25621,Lekáreň BENU,"OD Urban, Hlavná 69/111, 04001 Košice-Staré Mesto, Slovenská republika",verejná lekáreň,"{""odborni_zastupcovania"": ""Mgr. Tom\u00e1\u0161 Mokr\u00e1\u0148""}"
lekarne_ksk.fid--1024a340_187273c7313_-5dc1,Drug store,48.716055,21.25013,Lekáreň pri Aréne,"Žižkova 3836/1, 04001 Košice-Juh, Slovenská republika",verejná lekáreň,"{""odborni_zastupcovania"": ""Mgr. Danka Kristevov\u00e1""}"
lekarne_ksk.fid--1024a340_187273c7313_-5dba,Drug store,48.725391,21.250609,PRIMA LEKÁREŇ,"Pri Jazdiarni 1010/1, 04001 Košice-Staré Mesto, Slovenská republika",verejná lekáreň,"{""odborni_zastupcovania"": ""PharmDr. Zuzana Litavec""}"
lekarne_ksk.fid--1024a340_187273c7313_-5db9,Drug store,48.707026,21.257608,Lekáreň BOTICA PLUS,"Rastislavova 786/45, 04001 Košice-Juh, Slovenská republika",verejná lekáreň,"{""odborni_zastupcovania"": ""Mgr. Matej Ga\u013e""}"
lekarne_ksk.fid--1024a340_187273c7313_-5db7,Drug store,48.71838,21.257065,Lekáreň BAZALKA,"Bočná 405/10, 04001 Košice-Staré Mesto, Slovenská republika",verejná lekáreň,"{""odborni_zastupcovania"": ""Mgr. Lucia Ondikov\u00e1""}"
lekarne_ksk.fid--1024a340_187273c7313_-5db6,Drug store,48.709149,21.255332,Lekáreň L.Pasteura,"Rastislavova 785/43, 04001 Košice-Juh, Slovenská republika",verejná lekáreň,"{""odborni_zastupcovania"": ""PharmDr. M\u00e1ria Mes\u00e1ro\u0161ov\u00e1""}"
lekarne_ksk.fid--1024a340_187273c7313_-5db5,Drug store,48.717874,21.263617,Lekáreň Dr. Max,"OC Aupark, Nám. Osloboditeľov 1,  Košice-Staré Mesto, Slovenská republika",verejná lekáreň,"{""odborni_zastupcovania"": ""PharmDr. Miroslav K\u00f6falu\u0161i""}"
lekarne_ksk.fid--1024a340_187273c7313_-5db3,Drug store,48.718447,21.237655,Lekáreň Zuzkin park,"Zuzkin Park 472/6, 04011 Košice-Západ, Slovenská republika",verejná lekáreň,"{""odborni_zastupcovania"": ""PharmDr. Vincent Kollar\u010d\u00edk""}"
lekarne_ksk.fid--1024a340_187273c7313_-5db2,Drug store,48.731311,21.250681,Lekáreň ŽIVENA PLUS,"Komenského 3678/37, 04001 Košice-Sever, Slovenská republika",verejná lekáreň,"{""odborni_zastupcovania"": ""Mgr. Ivana Cap\u00edkov\u00e1""}"
lekarne_ksk.fid--1024a340_187273c7313_-5db1,Drug store,48.708587,21.245349,Lekáreň SANDRA,"Moldavská cesta 575/3A, 04011 Košice-Západ, Slovenská republika",verejná lekáreň,"{""odborni_zastupcovania"": ""PharmDr. Martina Bockov\u00e1""}"
lekarne_ksk.fid--1024a340_187273c7313_-5db0,Drug store,48.720069,21.216851,Lekáreň Euphoria,"Wuppertálska 3159/65, 04023 Košice-Sídlisko KVP, Slovenská republika",verejná lekáreň,"{""odborni_zastupcovania"": ""PharmDr. Frederik Fabi\u00e1n""}"
lekarne_ksk.fid--1024a340_187273c7313_-5dae,Drug store,48.721047,21.256241,Lekáreň na Dominikánskom námestí,"Mäsiarska 601/11, 04001 Košice-Staré Mesto, Slovenská republika",verejná lekáreň,"{""odborni_zastupcovania"": ""Mgr. Barbora Kre\u0161\u00e1kov\u00e1""}"
lekarne_ksk.fid--1024a340_187273c7313_-5dad,Drug store,48.712508,21.25516,ORTOSHOP s.r.o.,"Skladná 208/8, 04001 Košice-Juh, Slovenská republika",výdajňa zdravotníckych pomôcok,"{""odborni_zastupcovania"": ""Mgr. Vladim\u00edr Zaku\u0165ansk\u00fd""}"
lekarne_ksk.fid--1024a340_187273c7313_-5dac,Drug store,48.732904,21.251546,ORTOKOMPLET s.r.o.,"Komenského 74/37A, 04001 Košice-Sever, Slovenská republika",výdajňa zdravotníckych pomôcok,"{""odborni_zastupcovania"": ""Mgr. Ema Mikli\u010dov\u00e1""}"
lekarne_ksk.fid--1024a340_187273c7313_-5dab,Drug store,48.739504,21.282459,Lekáreň IVANA PLUS,"Maršala Koneva 985/1, 04022 Košice-Dargov.hrdinov, Slovenská republika",verejná lekáreň,"{""odborni_zastupcovania"": ""Mgr. Iveta Vasi\u013eov\u00e1""}"
lekarne_ksk.fid--1024a340_187273c7313_-5da5,Drug store,48.733721,21.28475,Lekáreň BENU,"Jaltská  2, 04022 Košice-Dargov.hrdinov, Slovenská republika",verejná lekáreň,"{""odborni_zastupcovania"": ""PharmDr. Andrea Frigov\u00e1""}"
lekarne_ksk.fid--1024a340_187273c7313_-5da4,Drug store,48.725443,21.246676,Lekáreň BENU,"L.Novomeského 7, 04001 Košice-Staré Mesto, Slovenská republika",verejná lekáreň,"{""odborni_zastupcovania"": ""Mgr. Martin Partil\u00e1k""}"
lekarne_ksk.fid--1024a340_187273c7313_-5d9d,Drug store,48.717054,21.268996,Lekáreň na Krivej,"Krivá 2986/17, 04001 Košice-Juh, Slovenská republika",verejná lekáreň,"{""odborni_zastupcovania"": ""Mgr. Juraj Hodoli\u010d""}"
lekarne_ksk.fid--1024a340_187273c7313_-5d9c,Drug store,48.707177,21.26192,Lekáreň Advena,"Južná trieda 1574/44, 04001 Košice-Juh, Slovenská republika",verejná lekáreň,"{""odborni_zastupcovania"": ""PharmDr. Eva Krasnay Kur\u00e1\u0148ov\u00e1""}"
lekarne_ksk.fid--1024a340_187273c7313_-5d97,Drug store,48.723221,21.236872,Nemocničná lekáreň s výdajom verejnosti,"Trieda SNP 1, 04011 Košice-Západ, Slovenská republika",nemocničná lekáreň s výdajom verejnosti,"{""odborni_zastupcovania"": ""Mgr. Jana Such\u00e1""}"
ambulancie_ksk.fid--1024a340_187273c7313_-6174,Hospital,48.735179,21.246073,"Všeobecná ambulancia pre dospelých, MUDr. Alena Adamov, Košice-Sever, (MUDr. Alena Adamov)","Urbánkova 1559/2, 04001 Košice-Sever, Slovenská republika",ambulancia všeobecnej ambulantnej zdravotnej starostlivosti,"{""odborni_zastupcovania"": ""MUDr. Alena Adamov ako lek\u00e1r""}"
ambulancie_ksk.fid--1024a340_187273c7313_-616c,Hospital,48.739504,21.282459,"Všeobecná ambulancia pre deti a dorast, MUDr. Eva Antónyová, Košice-Dargov.hrdinov, (MUDr. Antónyová Eva s.r.o.)","Maršala Koneva 985/1, 04022 Košice-Dargov.hrdinov, Slovenská republika",ambulancia všeobecnej ambulantnej zdravotnej starostlivosti,"{""odborni_zastupcovania"": ""MUDr. Eva Ant\u00f3nyov\u00e1 ako lek\u00e1r""}"
ambulancie_ksk.fid--1024a340_187273c7313_-6168,Hospital,48.725391,21.250609,"Všeobecná ambulancia pre dospelých, MUDr. Claudia Blanárová, Košice-Staré Mesto, (CB Praktik, spol. s.r.o.)","Pri Jazdiarni 1010/1, 04001 Košice-Staré Mesto, Slovenská republika",ambulancia všeobecnej ambulantnej zdravotnej starostlivosti,"{""odborni_zastupcovania"": ""MUDr. Claudia Blan\u00e1rov\u00e1 ako lek\u00e1r""}"
ambulancie_ksk.fid--1024a340_187273c7313_-6167,Hospital,48.721874,21.25222,"Všeobecná ambulancia pre dospelých, MUDr. Stanislava Bachledová, Košice-Staré Mesto, (GARMEDIC s.r.o.)","Moyzesova 1035/32, 04001 Košice-Staré Mesto, Slovenská republika",ambulancia všeobecnej ambulantnej zdravotnej starostlivosti,"{""odborni_zastupcovania"": ""MUDr. Stanislava Bachledov\u00e1 ako lek\u00e1r""}"
ambulancie_ksk.fid--1024a340_187273c7313_-6160,Hospital,48.722164,21.237415,"Všeobecná ambulancia pre deti a dorast, MUDr. Beáta Balluchová, Košice-Západ, (Balmed s.r.o.)","Trieda SNP 457/1, 04011 Košice-Západ, Slovenská republika",ambulancia všeobecnej ambulantnej zdravotnej starostlivosti,"{""odborni_zastupcovania"": ""MUDr. Be\u00e1ta Balluchov\u00e1 ako lek\u00e1r""}"
ambulancie_ksk.fid--1024a340_187273c7313_-615e,Hospital,48.728294,21.260174,"Všeobecná ambulancia pre dospelých, MUDr.Mgr. Monika Bargerová MHA., Košice-Staré Mesto, (MEDBARGER s.r.o.)","Masarykova 1639/17, 04001 Košice-Staré Mesto, Slovenská republika",ambulancia všeobecnej ambulantnej zdravotnej starostlivosti,"{""odborni_zastupcovania"": ""MUDr. Monika Bargerov\u00e1 ako lek\u00e1r""}"
ambulancie_ksk.fid--1024a340_187273c7313_-6157,Hospital,48.712654,21.256758,"Všeobecná ambulancia pre dospelých, MUDr. Ján Béreš, Košice-Juh, (JLB DOCTOR s. r. o.)","Skladná 206/4, 04001 Košice-Juh, Slovenská republika",ambulancia všeobecnej ambulantnej zdravotnej starostlivosti,"{""odborni_zastupcovania"": ""MUDr. J\u00e1n B\u00e9re\u0161 ako lek\u00e1r""}"
ambulancie_ksk.fid--1024a340_187273c7313_-614c,Hospital,48.726566,21.245656,"Všeobecná ambulancia pre dospelých, MUDr. Natália Brnová, Košice-Staré Mesto, (MEDOC s.r.o.)","Československej armády 1175/18, 04001 Košice-Staré Mesto, Slovenská republika",ambulancia všeobecnej ambulantnej zdravotnej starostlivosti,"{""odborni_zastupcovania"": ""MUDr. Nat\u00e1lia Brnov\u00e1 ako lek\u00e1r""}"
ambulancie_ksk.fid--1024a340_187273c7313_-614a,Hospital,48.71678,21.249088,"Všeobecná ambulancia pre dospelých, MUDr. Anton Broniš, Košice-Staré Mesto, (ELLMED s.r.o.)","Štúrova 1369/29, 04001 Košice-Staré Mesto, Slovenská republika",ambulancia všeobecnej ambulantnej zdravotnej starostlivosti,"{""odborni_zastupcovania"": ""MUDr. Anton Broni\u0161 ako lek\u00e1r""}"
ambulancie_ksk.fid--1024a340_187273c7313_-6149,Hospital,48.707026,21.257608,"Všeobecná ambulancia pre dospelých, MUDr. Eva Mattová, Košice-Juh, (ELLMED s.r.o.)","Rastislavova 786/45, 04001 Košice-Juh, Slovenská republika",ambulancia všeobecnej ambulantnej zdravotnej starostlivosti,"{""odborni_zastupcovania"": ""MUDr. Eva Mattov\u00e1 ako lek\u00e1r""}"
ambulancie_ksk.fid--1024a340_187273c7313_-6141,Hospital,48.725391,21.250609,"Všeobecná ambulancia pre dospelých, MUDr. Stella čajková, Košice-Staré Mesto, (Sachmet, s.r.o.)","Pri Jazdiarni 1010/1, 04001 Košice-Staré Mesto, Slovenská republika",ambulancia všeobecnej ambulantnej zdravotnej starostlivosti,"{""odborni_zastupcovania"": ""MUDr. Stella \u010cajkov\u00e1 ako lek\u00e1r""}"
ambulancie_ksk.fid--1024a340_187273c7313_-6140,Hospital,48.726566,21.245656,"Všeobecná ambulancia pre dospelých, MUDr. Slavomíra Čellárová, Košice-Staré Mesto, (Medicell, spol. s r.o.)","Československej armády 1175/18, 04001 Košice-Staré Mesto, Slovenská republika",ambulancia všeobecnej ambulantnej zdravotnej starostlivosti,"{""odborni_zastupcovania"": ""\u010cell\u00e1rov\u00e1 Slavom\u00edra MUDr. ako lek\u00e1r""}"
ambulancie_ksk.fid--1024a340_187273c7313_-613b,Hospital,48.707026,21.257608,"Všeobecná ambulancia pre deti a dorast, MUDr. Adriana Čuhová, Košice-Juh, (doBRRÁ ambulancia s.r.o.)","Rastislavova 786/45, 04001 Košice-Juh, Slovenská republika",ambulancia všeobecnej ambulantnej zdravotnej starostlivosti,"{""odborni_zastupcovania"": ""MUDr. Adriana \u010cuhov\u00e1 ako lek\u00e1r""}"
ambulancie_ksk.fid--1024a340_187273c7313_-6132,Hospital,48.709836,21.204655,"Všeobecná ambulancia pre dospelých, MUDr. Edita Domanská, Košice-Myslava, (JUHALEK s.r.o.)","Myslavská 245/190, 04016 Košice-Myslava, Slovenská republika",ambulancia všeobecnej ambulantnej zdravotnej starostlivosti,"{""odborni_zastupcovania"": ""MUDr. M\u00e1ria Ja\u0161\u0161ov\u00e1 ako lek\u00e1r""}"
ambulancie_ksk.fid--1024a340_187273c7313_-612f,Hospital,48.733999,21.250172,"Všeobecná ambulancia pre dospelých, MUDr. Peter Dravecký, Košice-Sever, (MUDr. Dravecký - SAHA s.r.o.)","Tomašíkova 151/8, 04001 Košice-Sever, Slovenská republika",ambulancia všeobecnej ambulantnej zdravotnej starostlivosti,"{""odborni_zastupcovania"": ""MUDr. Peter Draveck\u00fd ako lek\u00e1r""}"
ambulancie_ksk.fid--1024a340_187273c7313_-612d,Hospital,48.739504,21.282459,"Všeobecná ambulancia pre dospelých, MUDr. Helena Dudríková, Košice-Dargov.hrdinov, (SIMPLEX s.r.o.)","Maršala Koneva 985/1, 04022 Košice-Dargov.hrdinov, Slovenská republika",ambulancia všeobecnej ambulantnej zdravotnej starostlivosti,"{""odborni_zastupcovania"": ""MUDr. Helena Dudr\u00edkov\u00e1 ako lek\u00e1r""}"
ambulancie_ksk.fid--1024a340_187273c7313_-612c,Hospital,48.739504,21.282459,"Všeobecná ambulancia pre deti a dorast, MUDr. Tamara Dupkalová, Košice-Dargov.hrdinov, (MUDr. Tamara Dupkalová)","Maršala Koneva 985/1, 04022 Košice-Dargov.hrdinov, Slovenská republika",ambulancia všeobecnej ambulantnej zdravotnej starostlivosti,"{""odborni_zastupcovania"": ""MUDr. Tamara Dupkalov\u00e1 ako lek\u00e1r""}"
ambulancie_ksk.fid--1024a340_187273c7313_-6128,Hospital,48.707026,21.257608,"Všeobecná ambulancia pre deti a dorast, MUDr. Terézia Džunková, Košice-Juh, (MUDr. Terézia Džunková)","Rastislavova 786/45, 04001 Košice-Juh, Slovenská republika",ambulancia všeobecnej ambulantnej zdravotnej starostlivosti,"{""odborni_zastupcovania"": ""MUDr. Ter\u00e9zia D\u017eunkov\u00e1 ako lek\u00e1r""}"
ambulancie_ksk.fid--1024a340_187273c7313_-6118,Hospital,48.72161,21.261904,"Všeobecná ambulancia pre dospelých, MUDr. Diana Baranová, Košice-Staré Mesto, (DIAGMED s. r. o.)","Mlynská 898/26, 04001 Košice-Staré Mesto, Slovenská republika",ambulancia všeobecnej ambulantnej zdravotnej starostlivosti,"{""odborni_zastupcovania"": ""MUDr. Diana Baranov\u00e1 ako lek\u00e1r""}"
ambulancie_ksk.fid--1024a340_187273c7313_-610a,Hospital,48.714765,21.216094,"Všeobecná ambulancia pre deti a dorast, MUDr. Ľudmila Halásová, Košice-Sídlisko KVP, (LUDOC s.r.o.)","Cottbuská 1581/13, 04023 Košice-Sídlisko KVP, Slovenská republika",ambulancia všeobecnej ambulantnej zdravotnej starostlivosti,"{""odborni_zastupcovania"": ""MUDr. \u013dudmila Hal\u00e1sov\u00e1 ako lek\u00e1r""}"
ambulancie_ksk.fid--1024a340_187273c7313_-6109,Hospital,48.714765,21.216094,"Všeobecná ambulancia pre deti a dorast, MUDr. Viera Halásová, Košice-Sídlisko KVP, (Healing H s. r. o.)","Cottbuská 1581/13, 04023 Košice-Sídlisko KVP, Slovenská republika",ambulancia všeobecnej ambulantnej zdravotnej starostlivosti,"{""odborni_zastupcovania"": ""MUDr. Viera Hal\u00e1sov\u00e1 ako lek\u00e1r""}"
ambulancie_ksk.fid--1024a340_187273c7313_-6108,Hospital,48.731311,21.250681,"Všeobecná ambulancia pre dospelých, MUDr. Viera Hančíkovská, Košice-Sever, (MEDIVICI s.r.o.)","Komenského 3678/37, 04001 Košice-Sever, Slovenská republika",ambulancia všeobecnej ambulantnej zdravotnej starostlivosti,"{""odborni_zastupcovania"": ""MUDr. Viera Han\u010d\u00edkovsk\u00e1 ako lek\u00e1r""}"
ambulancie_ksk.fid--1024a340_187273c7313_-6106,Hospital,48.739504,21.282459,"Všeobecná ambulancia pre deti a dorast, MUDr. Mária Takáčová, Košice-Dargov.hrdinov, (TAKPED s.r.o.)","Maršala Koneva 985/1, 04022 Košice-Dargov.hrdinov, Slovenská republika",ambulancia všeobecnej ambulantnej zdravotnej starostlivosti,"{""odborni_zastupcovania"": ""MUDr. M\u00e1ria Tak\u00e1\u010dov\u00e1 ako lek\u00e1r""}"
ambulancie_ksk.fid--1024a340_187273c7313_-60fb,Hospital,48.714765,21.216094,"Všeobecná ambulancia pre dospelých, MUDr. Gabriel Vozár, Košice-Sídlisko KVP, (Batimed s.r.o.)","Poliklinika KVP, Cottbuská 1581/13, 04023 Košice-Sídlisko KVP, Slovenská republika",ambulancia všeobecnej ambulantnej zdravotnej starostlivosti,"{""odborni_zastupcovania"": ""MUDr. Gabriel Voz\u00e1r ako lek\u00e1r""}"
ambulancie_ksk.fid--1024a340_187273c7313_-60f7,Hospital,48.715814,21.231377,"Všeobecná ambulancia pre dospelých, MUDr. Júlia Horňáková, Košice-Západ, (MUDr. Júlia Horňáková)","Brigádnická 2276/2A, 04011 Košice-Západ, Slovenská republika",ambulancia všeobecnej ambulantnej zdravotnej starostlivosti,"{""odborni_zastupcovania"": ""MUDr. J\u00falia Hor\u0148\u00e1kov\u00e1 ako lek\u00e1r""}"
ambulancie_ksk.fid--1024a340_187273c7313_-60f5,Hospital,48.739504,21.282459,"Všeobecná ambulancia pre deti a dorast, MUDr. Mária Horváthová, Košice-Dargov.hrdinov, (MUDr. Mária Horváthová)","Maršala Koneva 985/1, 04022 Košice-Dargov.hrdinov, Slovenská republika",ambulancia všeobecnej ambulantnej zdravotnej starostlivosti,"{""odborni_zastupcovania"": ""MUDr. M\u00e1ria Horv\u00e1thov\u00e1 ako lek\u00e1r""}"
ambulancie_ksk.fid--1024a340_187273c7313_-60f3,Hospital,48.739504,21.282459,"Všeobecná ambulancia pre deti a dorast, MUDr. Elena Hrbáňová, Košice-Dargov.hrdinov, (MUDr. Elena Hrbáňová)","Maršala Koneva 985/1, 04022 Košice-Dargov.hrdinov, Slovenská republika",ambulancia všeobecnej ambulantnej zdravotnej starostlivosti,"{""odborni_zastupcovania"": ""MUDr. Elena Hrb\u00e1\u0148ov\u00e1 ako lek\u00e1r""}"
ambulancie_ksk.fid--1024a340_187273c7313_-60ef,Hospital,48.739504,21.282459,"Všeobecná ambulancia pre deti a dorast, MUDr. Danka Hrubalová, Košice-Dargov.hrdinov, (MUDr. Danka Hrubalová)","Maršala Koneva 985/1, 04022 Košice-Dargov.hrdinov, Slovenská republika",ambulancia všeobecnej ambulantnej zdravotnej starostlivosti,"{""odborni_zastupcovania"": ""MUDr. Danka Hrubalov\u00e1 ako lek\u00e1r""}"
ambulancie_ksk.fid--1024a340_187273c7313_-60eb,Hospital,48.722164,21.237415,"Všeobecná ambulancia pre dospelých, MUDr. Ľubomíra Huková, Košice-Západ, (MUDr. Ľubomíra Huková)","Trieda SNP 457/1, 04011 Košice-Západ, Slovenská republika",ambulancia všeobecnej ambulantnej zdravotnej starostlivosti,"{""odborni_zastupcovania"": ""MUDr. \u013dubom\u00edra Hukov\u00e1 ako lek\u00e1r""}"
ambulancie_ksk.fid--1024a340_187273c7313_-60e9,Hospital,48.707026,21.257608,"Všeobecná ambulancia pre dospelých, MUDr. Monika Valisková, Košice-Juh, (MEDIDENTAL, s.r.o.)","Rastislavova 786/45, 04001 Košice-Juh, Slovenská republika",ambulancia všeobecnej ambulantnej zdravotnej starostlivosti,"{""odborni_zastupcovania"": ""MUDr. Monika Chlebanov\u00e1 ako lek\u00e1r""}"
ambulancie_ksk.fid--1024a340_187273c7313_-60e4,Hospital,48.722164,21.237415,"Všeobecná ambulancia pre dospelých, MUDr. Tamara Jablonská, Košice-Západ, (MUDr. Tamara Jablonská)","Trieda SNP 457/1, 04011 Košice-Západ, Slovenská republika",ambulancia všeobecnej ambulantnej zdravotnej starostlivosti,"{""odborni_zastupcovania"": ""MUDr. Tamara Jablonsk\u00e1 ako lek\u00e1r""}"
ambulancie_ksk.fid--1024a340_187273c7313_-60e0,Hospital,48.714765,21.216094,"Všeobecná ambulancia pre deti a dorast, MUDr. Alena Jancová, Košice-Sídlisko KVP, (JAAT Style, s. r. o.)","Cottbuská 1581/13, 04023 Košice-Sídlisko KVP, Slovenská republika",ambulancia všeobecnej ambulantnej zdravotnej starostlivosti,"{""odborni_zastupcovania"": ""MUDr. Alena Jancov\u00e1 ako lek\u00e1r""}"
ambulancie_ksk.fid--1024a340_187273c7313_-60dd,Hospital,48.723548,21.258573,"Všeobecná ambulancia pre dospelých, MUDr. Andrea Jarabáková, Košice-Staré Mesto, (MEDITEK s.r.o.)","Kováčska 255/37, 04001 Košice-Staré Mesto, Slovenská republika",ambulancia všeobecnej ambulantnej zdravotnej starostlivosti,"{""odborni_zastupcovania"": ""MUDr. Andrea Jarab\u00e1kov\u00e1 ako lek\u00e1r""}"
ambulancie_ksk.fid--1024a340_187273c7313_-60d6,Hospital,48.707026,21.257608,"Ústav všeobecného lekárstva UPJŠ LF a Kalanin, s.r.o.: všeobecná ambulancia pre dospelých, Košice-Juh, (Kalanin, s.r.o.)","Rastislavova 786/45, 04001 Košice-Juh, Slovenská republika",ambulancia všeobecnej ambulantnej zdravotnej starostlivosti,"{""odborni_zastupcovania"": ""prof. MUDr. Kalanin Peter,, PhD. ako lek\u00e1r""}"
ambulancie_ksk.fid--1024a340_187273c7313_-60d3,Hospital,48.719022,21.259287,"Všeobecná ambulancia pre dospelých, Košice-Staré Mesto, (DoctorKa s.r.o.)","Hlavná 116/15, 04001 Košice-Staré Mesto, Slovenská republika",ambulancia všeobecnej ambulantnej zdravotnej starostlivosti,"{""odborni_zastupcovania"": ""MUDr. M\u00e1ria Kapasn\u00e1 ako lek\u00e1r""}"
ambulancie_ksk.fid--1024a340_187273c7313_-60d1,Hospital,48.731311,21.250681,"Všeobecná ambulancia pre dospelých, MUDr. Ľubica Karahutová, Košice-Sever, (PRAKMED, s.r.o.)","Komenského 3678/37, 04001 Košice-Sever, Slovenská republika",ambulancia všeobecnej ambulantnej zdravotnej starostlivosti,"{""odborni_zastupcovania"": ""MUDr. \u013dubica Karahutov\u00e1 ako lek\u00e1r""}"
ambulancie_ksk.fid--1024a340_187273c7313_-60cf,Hospital,48.739504,21.282459,"Všeobecná ambulancia pre dospelých, MUDr. Anna Kasová, Košice-Dargov.hrdinov, (Preventis s.r.o.)","Maršala Koneva 985/1, 04022 Košice-Dargov.hrdinov, Slovenská republika",ambulancia všeobecnej ambulantnej zdravotnej starostlivosti,"{""odborni_zastupcovania"": ""MUDr. Anna Kasov\u00e1 ako lek\u00e1r""}"
ambulancie_ksk.fid--1024a340_187273c7313_-60cd,Hospital,48.722164,21.237415,"Všeobecná ambulancia pre dospelých, MUDr. Magdaléna Kilárová, Košice-Západ, (MUDr. Magdaléna Kilárová)","Trieda SNP 457/1, 04011 Košice-Západ, Slovenská republika",ambulancia všeobecnej ambulantnej zdravotnej starostlivosti,"{""odborni_zastupcovania"": ""MUDr. Magdal\u00e9na Kil\u00e1rov\u00e1 ako lek\u00e1r""}"
ambulancie_ksk.fid--1024a340_187273c7313_-60cc,Hospital,48.724969,21.243461,"Všeobecná ambulancia pre deti a dorast, MUDr. Žofia Kissová, Košice-Staré Mesto, (MEDKISS s.r.o.)","Tatranská 1232/25, 04001 Košice-Staré Mesto, Slovenská republika",ambulancia všeobecnej ambulantnej zdravotnej starostlivosti,"{""odborni_zastupcovania"": ""MUDr. \u017dofia Kissov\u00e1 ako lek\u00e1r, MUDr. Da\u0161a Falisov\u00e1 ako lek\u00e1r""}"
ambulancie_ksk.fid--1024a340_187273c7313_-60c9,Hospital,48.707026,21.257608,"Všeobecná ambulancia pre deti a dorast, MUDr. Zuzana Klembarová, Košice-Juh, (MAPAS, s. r. o.)","Rastislavova 786/45, 04001 Košice-Juh, Slovenská republika",ambulancia všeobecnej ambulantnej zdravotnej starostlivosti,"{""odborni_zastupcovania"": ""MUDr. Zuzana Klembarov\u00e1 ako lek\u00e1r""}"
ambulancie_ksk.fid--1024a340_187273c7313_-60c4,Hospital,48.707026,21.257608,"Všeobecná ambulancia pre dospelých, MUDr. Anna Kocáková, Košice-Juh, (KAHUNAS s.r.o.)","Rastislavova 786/45, 04001 Košice-Juh, Slovenská republika",ambulancia všeobecnej ambulantnej zdravotnej starostlivosti,"{""odborni_zastupcovania"": ""MUDr. Koc\u00e1kov\u00e1 Anna ako lek\u00e1r""}"
ambulancie_ksk.fid--1024a340_187273c7313_-60c3,Hospital,48.722164,21.237415,"Všeobecná ambulancia pre deti a dorast, MUDr. Mária Kočíková, Košice-Západ, (KOMALEK s. r. o.)","Trieda SNP 457/1, 04011 Košice-Západ, Slovenská republika",ambulancia všeobecnej ambulantnej zdravotnej starostlivosti,"{""odborni_zastupcovania"": ""MUDr. M\u00e1ria Ko\u010dikov\u00e1 ako lek\u00e1r""}"
ambulancie_ksk.fid--1024a340_187273c7313_-60c2,Hospital,48.722164,21.237415,"Všeobecná ambulancia pre dospelých, MUDr. Anton Koľada, Košice-Západ, (MUDr. Koľada s.r.o.)","Trieda SNP 457/1, 04011 Košice-Západ, Slovenská republika",ambulancia všeobecnej ambulantnej zdravotnej starostlivosti,"{""odborni_zastupcovania"": ""MUDr. Anton Ko\u013eada ako lek\u00e1r""}"
ambulancie_ksk.fid--1024a340_187273c7313_-60c0,Hospital,48.707026,21.257608,"Všeobecná ambulancia pre dospelých, MUDr. Elena Adamkovičová, PhD., Košice-Juh, (IRS - Medicínska činnosť s.r.o.)","Rastislavova 786/45, 04001 Košice-Juh, Slovenská republika",ambulancia všeobecnej ambulantnej zdravotnej starostlivosti,"{""odborni_zastupcovania"": ""MUDr. Elena Adamkovi\u010dov\u00e1, PhD. ako lek\u00e1r""}"
ambulancie_ksk.fid--1024a340_187273c7313_-60be,Hospital,48.733819,21.24682,"Všeobecná ambulancia pre dospelých, MUDr. Henrieta Koppányová, Košice-Sever, (MUDr. Henrieta Koppányová)","Vysokoškolská 38/1, 04001 Košice-Sever, Slovenská republika",ambulancia všeobecnej ambulantnej zdravotnej starostlivosti,"{""odborni_zastupcovania"": ""MUDr. Henrieta Kopp\u00e1nyov\u00e1 ako lek\u00e1r""}"
ambulancie_ksk.fid--1024a340_187273c7313_-60bb,Hospital,48.724969,21.243461,"Všeobecná ambulancia pre deti a dorast, MUDr. Dagmar Kováčiková, Košice-Staré Mesto, (MUDr. Dagmar Kováčiková)","Tatranská 1232/25, 04001 Košice-Staré Mesto, Slovenská republika",ambulancia všeobecnej ambulantnej zdravotnej starostlivosti,"{""odborni_zastupcovania"": ""MUDr. Dagmar Kov\u00e1\u010dikov\u00e1 ako lek\u00e1r""}"
ambulancie_ksk.fid--1024a340_187273c7313_-60b7,Hospital,48.722164,21.237415,"Všeobecná ambulancia pre dospelých, MUDr. Beatrica Köváryová, Košice-Západ, (MUDr. Beatrica Köváryová)","Trieda SNP 457/1, 04011 Košice-Západ, Slovenská republika",ambulancia všeobecnej ambulantnej zdravotnej starostlivosti,"{""odborni_zastupcovania"": ""MUDr. Beatrica K\u00f6v\u00e1ryov\u00e1 ako lek\u00e1r""}"
ambulancie_ksk.fid--1024a340_187273c7313_-60b4,Hospital,48.714765,21.216094,"Všeobecná ambulancia pre deti a dorast, MUDr. Viera Krajčiová, Košice-Sídlisko KVP, (VIAMEDY s.r.o.)","Cottbuská 1581/13, 04023 Košice-Sídlisko KVP, Slovenská republika",ambulancia všeobecnej ambulantnej zdravotnej starostlivosti,"{""odborni_zastupcovania"": ""MUDr. Viera Kraj\u010diov\u00e1 ako lek\u00e1r""}"
ambulancie_ksk.fid--1024a340_187273c7313_-60af,Hospital,48.716418,21.268246,"Všeobecná ambulancia pre dospelých, MUDr. Marianna Krupšová, Košice-Juh, (GP - MED s.r.o.)","Krivá 1066/23, 04001 Košice-Juh, Slovenská republika",ambulancia všeobecnej ambulantnej zdravotnej starostlivosti,"{""odborni_zastupcovania"": ""MUDr. Marianna Krup\u0161ov\u00e1 ako lek\u00e1r""}"
ambulancie_ksk.fid--1024a340_187273c7313_-60ad,Hospital,48.714765,21.216094,"Všeobecná ambulancia pre dospelých, MUDr. Katarína Kudláková, Košice-Sídlisko KVP, (URSA s.r.o.)","Cottbuská 1581/13, 04023 Košice-Sídlisko KVP, Slovenská republika",ambulancia všeobecnej ambulantnej zdravotnej starostlivosti,"{""odborni_zastupcovania"": ""MUDr. Katar\u00edna Kudl\u00e1kov\u00e1 ako lek\u00e1r""}"
ambulancie_ksk.fid--1024a340_187273c7313_-60a3,Hospital,48.734942,21.249543,"Všeobecná ambulancia pre dospelých, MUDr. Alena Lengyelová, Košice-Sever, (MEDILEN s.r.o.)","Kisdyho 180/11, 04001 Košice-Sever, Slovenská republika",ambulancia všeobecnej ambulantnej zdravotnej starostlivosti,"{""odborni_zastupcovania"": ""MUDr. Alena Lengyelov\u00e1 ako lek\u00e1r""}"
ambulancie_ksk.fid--1024a340_187273c7313_-60a2,Hospital,48.726566,21.245656,"Všeobecná ambulancia pre dospelých, MUDr. Jozef Takáč, Košice-Staré Mesto, (LENMED s.r.o.)","Československej armády 1175/18, 04001 Košice-Staré Mesto, Slovenská republika",ambulancia všeobecnej ambulantnej zdravotnej starostlivosti,"{""odborni_zastupcovania"": ""MUDr. Jozef Tak\u00e1\u010d ako lek\u00e1r""}"
ambulancie_ksk.fid--1024a340_187273c7313_-60a1,Hospital,48.7443,21.245882,"Všeobecná ambulancia pre dospelých, MUDr. Nina Leščišinová, Košice-Sever, (ZDRAVIE - Nina s.r.o.)","Cesta pod Hradovou 803/11, 04001 Košice-Sever, Slovenská republika",ambulancia všeobecnej ambulantnej zdravotnej starostlivosti,"{""odborni_zastupcovania"": ""MUDr. Nina Le\u0161\u010di\u0161inov\u00e1 ako lek\u00e1r""}"
ambulancie_ksk.fid--1024a340_187273c7313_-60a0,Hospital,48.722164,21.237415,"Všeobecná ambulancia pre dospelých, MUDr. Helena Lešková, Košice-Západ, (MUDr. Helena Lešková)","Trieda SNP 457/1, 04011 Košice-Západ, Slovenská republika",ambulancia všeobecnej ambulantnej zdravotnej starostlivosti,"{""odborni_zastupcovania"": ""MUDr. Helena Le\u0161kov\u00e1 ako lek\u00e1r""}"
ambulancie_ksk.fid--1024a340_187273c7313_-609d,Hospital,48.734801,21.253739,"Všeobecná ambulancia pre dospelých, MUDr. Ivana Bačová, PhD., Košice-Sever, (AMLOMED s. r. o.)","Národná trieda 214/27, 04001 Košice-Sever, Slovenská republika",ambulancia všeobecnej ambulantnej zdravotnej starostlivosti,"{""odborni_zastupcovania"": ""MUDr. Ivana Ba\u010dov\u00e1, PhD. ako lek\u00e1r""}"
ambulancie_ksk.fid--1024a340_187273c7313_-609c,Hospital,48.714765,21.216094,"Všeobecná ambulancia pre deti a dorast, MUDr. Mária Lorková, Košice-Sídlisko KVP, (LORMED s.r.o.)","Cottbuská 1581/13, 04023 Košice-Sídlisko KVP, Slovenská republika",ambulancia všeobecnej ambulantnej zdravotnej starostlivosti,"{""odborni_zastupcovania"": ""MUDr. M\u00e1ria Lorkov\u00e1 ako lek\u00e1r""}"
ambulancie_ksk.fid--1024a340_187273c7313_-6099,Hospital,48.723548,21.258573,"Všeobecná ambulancia pre dospelých, MUDr. Adriena Lukáčová, Košice-Staré Mesto, (A.L.MED s. r. o.)","Kováčska 255/37, 04001 Košice-Staré Mesto, Slovenská republika",ambulancia všeobecnej ambulantnej zdravotnej starostlivosti,"{""odborni_zastupcovania"": ""MUDr. Adriena Luk\u00e1\u010dov\u00e1 ako lek\u00e1r""}"
ambulancie_ksk.fid--1024a340_187273c7313_-6095,Hospital,48.721577,21.261913,"Všeobecná ambulancia pre dospelých, MUDr. Zlatica Madzinová, Košice-Staré Mesto, (AURA - MUDr. Zlatica Madzinová s.r.o.)","Mlynská 26, 04001 Košice-Staré Mesto, Slovenská republika",ambulancia všeobecnej ambulantnej zdravotnej starostlivosti,"{""odborni_zastupcovania"": ""MUDr. Zlatica Madzinov\u00e1 ako lek\u00e1r""}"
ambulancie_ksk.fid--1024a340_187273c7313_-6092,Hospital,48.716418,21.268246,"Všeobecná ambulancia pre dospelých, Košice-Juh, (MEDIOS s.r.o.)","Krivá 1066/23, 04001 Košice-Juh, Slovenská republika",ambulancia všeobecnej ambulantnej zdravotnej starostlivosti,"{""odborni_zastupcovania"": ""MUDr. Vlasta Makovn\u00edkov\u00e1 ako lek\u00e1r""}"
ambulancie_ksk.fid--1024a340_187273c7313_-608e,Hospital,48.722164,21.237415,"Všeobecná ambulancia pre dospelých, MUDr. Zsolt Máthé, Košice-Západ, (Spol. lekárov MÁTHÉ s. r. o.)","Trieda SNP 457/1, 04011 Košice-Západ, Slovenská republika",ambulancia všeobecnej ambulantnej zdravotnej starostlivosti,"{""odborni_zastupcovania"": ""MUDr. Zsolt M\u00e1th\u00e9 ako lek\u00e1r""}"
ambulancie_ksk.fid--1024a340_187273c7313_-608d,Hospital,48.72161,21.261904,"Všeobecná ambulancia pre dospelých, MUDr. Soňa Matúšková, Košice-Staré Mesto, (MATMED, s.r.o.)","Mlynská 898/26, 04001 Košice-Staré Mesto, Slovenská republika",ambulancia všeobecnej ambulantnej zdravotnej starostlivosti,"{""odborni_zastupcovania"": ""MUDr. So\u0148a Mat\u00fa\u0161kov\u00e1 ako lek\u00e1r""}"
ambulancie_ksk.fid--1024a340_187273c7313_-607b,Hospital,48.739504,21.282459,"Všeobecná ambulancia pre dospelých, MUDr. Magdaléna Obšitníková, Košice-Dargov.hrdinov, (Obšitníková Magdaléna, MUDr., s.r.o.)","Maršala Koneva 985/1, 04022 Košice-Dargov.hrdinov, Slovenská republika",ambulancia všeobecnej ambulantnej zdravotnej starostlivosti,"{""odborni_zastupcovania"": ""MUDr. Magdal\u00e9na Ob\u0161itn\u00edkov\u00e1 ako lek\u00e1r""}"
ambulancie_ksk.fid--1024a340_187273c7313_-6078,Hospital,48.714765,21.216094,"Všeobecná ambulancia pre deti a dorast, MUDr. Zoja Olašinová, Košice-Sídlisko KVP, (ADAM - KOŠICE s.r.o.)","Cottbuská 1581/13, 04023 Košice-Sídlisko KVP, Slovenská republika",ambulancia všeobecnej ambulantnej zdravotnej starostlivosti,"{""odborni_zastupcovania"": ""MUDr. Zoja Ola\u0161inov\u00e1 ako lek\u00e1r""}"
ambulancie_ksk.fid--1024a340_187273c7313_-6077,Hospital,48.707026,21.257608,"Všeobecná ambulancia pre dospelých, MUDr. Otília Ostróová, Košice-Juh, (ORO Medical s.r.o.)","Rastislavova 786/45, 04001 Košice-Juh, Slovenská republika",ambulancia všeobecnej ambulantnej zdravotnej starostlivosti,"{""odborni_zastupcovania"": ""MUDr. Ot\u00edlia Ostr\u00f3ov\u00e1 ako lek\u00e1r""}"
ambulancie_ksk.fid--1024a340_187273c7313_-6076,Hospital,48.714765,21.216094,"Všeobecná ambulancia pre deti a dorast, MUDr. Kristína Pačutová, Košice-Sídlisko KVP, (MEDPAK, s.r.o.)","Cottbuská 1581/13, 04023 Košice-Sídlisko KVP, Slovenská republika",ambulancia všeobecnej ambulantnej zdravotnej starostlivosti,"{""odborni_zastupcovania"": ""MUDr. Krist\u00edna Pa\u010dutov\u00e1 ako lek\u00e1r""}"
ambulancie_ksk.fid--1024a340_187273c7313_-6070,Hospital,48.715814,21.231377,"Všeobecná ambulancia pre dospelých, MUDr.Katarína Jankovičová, Košice-Západ, (Kastanea s.r.o.)","Brigádnická 2276/2A, 04011 Košice-Západ, Slovenská republika",ambulancia všeobecnej ambulantnej zdravotnej starostlivosti,"{""odborni_zastupcovania"": ""MUDr. Katar\u00edna Jankovi\u010dov\u00e1 ako lek\u00e1r""}"
ambulancie_ksk.fid--1024a340_187273c7313_-606e,Hospital,48.739504,21.282459,"Všeobecná ambulancia pre dospelých, Košice-Dargov.hrdinov, (SALUMED, s.r.o.)","Maršala Koneva 985/1, 04022 Košice-Dargov.hrdinov, Slovenská republika",ambulancia všeobecnej ambulantnej zdravotnej starostlivosti,"{""odborni_zastupcovania"": ""MUDr. \u013dubica Pavli\u0161\u00e1kov\u00e1 ako lek\u00e1r""}"
ambulancie_ksk.fid--1024a340_187273c7313_-606c,Hospital,48.714765,21.216094,"Všeobecná ambulancia pre deti a dorast, MUDr. Viera Pavlová, Košice-Sídlisko KVP, (PVP s.r.o.)","Cottbuská 1581/13, 04023 Košice-Sídlisko KVP, Slovenská republika",ambulancia všeobecnej ambulantnej zdravotnej starostlivosti,"{""odborni_zastupcovania"": ""MUDr. Viera Pavlov\u00e1 ako lek\u00e1r""}"
ambulancie_ksk.fid--1024a340_187273c7313_-6068,Hospital,48.714765,21.216094,"Všeobecná ambulancia pre dospelých, MUDr. Eva Psárska, Košice-Sídlisko KVP, (SANMED s.r.o.)","Cottbuská 1581/13, 04023 Košice-Sídlisko KVP, Slovenská republika",ambulancia všeobecnej ambulantnej zdravotnej starostlivosti,"{""odborni_zastupcovania"": ""MUDr. Eva Ps\u00e1rska ako lek\u00e1r""}"
ambulancie_ksk.fid--1024a340_187273c7313_-6063,Hospital,48.722164,21.237415,"PEDAMB s.r.o., Košice-Západ, (PEDAMB s.r.o.)","Trieda SNP 457/1, 04011 Košice-Západ, Slovenská republika",ambulancia všeobecnej ambulantnej zdravotnej starostlivosti,"{""odborni_zastupcovania"": ""MUDr. Iveta Marinov\u00e1 ako lek\u00e1r""}"
ambulancie_ksk.fid--1024a340_187273c7313_-6061,Hospital,48.70813,21.237199,"Všeobecná ambulancia pre dospelých, MUDr. Martin Pohorenec, Košice-Západ, (M.P. MediCare s.r.o.)","Trieda SNP 339/88, 04011 Košice-Západ, Slovenská republika",ambulancia všeobecnej ambulantnej zdravotnej starostlivosti,"{""odborni_zastupcovania"": ""MUDr. Martin Pohorenec ako lek\u00e1r""}"
ambulancie_ksk.fid--1024a340_187273c7313_-605f,Hospital,48.717054,21.268997,"Všeobecná ambulancia pre dospelých, MUDr. Tatiana Poláková, Košice-Juh, (POLMED s.r.o.)","Krivá 2986/17, 04001 Košice-Juh, Slovenská republika",ambulancia všeobecnej ambulantnej zdravotnej starostlivosti,"{""odborni_zastupcovania"": ""MUDr. Tatiana Pol\u00e1kov\u00e1 ako lek\u00e1r""}"
ambulancie_ksk.fid--1024a340_187273c7313_-6059,Hospital,48.708961,21.25786,"Všeobecná ambulancia pre dospelých, MUDr. Jana Barlová, Košice-Juh, (Psarskia, s.r.o.)","Smetanova 773/2, 04001 Košice-Juh, Slovenská republika",ambulancia všeobecnej ambulantnej zdravotnej starostlivosti,"{""odborni_zastupcovania"": ""MUDr. Jana Barlov\u00e1 ako lek\u00e1r""}"
ambulancie_ksk.fid--1024a340_187273c7313_-6058,Hospital,48.724969,21.243461,"Všeobecná ambulancia pre deti a dorast, MUDr. Alexandra Puzová, Košice-Staré Mesto, (MUDr. Alexandra Puzová)","Tatranská 1232/25, 04001 Košice-Staré Mesto, Slovenská republika",ambulancia všeobecnej ambulantnej zdravotnej starostlivosti,"{""odborni_zastupcovania"": ""MUDr. Alexandra Puzov\u00e1 ako lek\u00e1r""}"
ambulancie_ksk.fid--1024a340_187273c7313_-6057,Hospital,48.730083,21.241211,"Všeobecná ambulancia pre dospelých, MUDr. Jana Rajničová, Košice-Sever, (Neštátne zdravotnícke zariadenie RAVER, s.r.o.)","Hroncova 13/3, 04001 Košice-Sever, Slovenská republika",ambulancia všeobecnej ambulantnej zdravotnej starostlivosti,"{""odborni_zastupcovania"": ""MUDr. Jana Rajni\u010dov\u00e1 ako lek\u00e1r""}"
ambulancie_ksk.fid--1024a340_187273c7313_-6052,Hospital,48.69567,21.262265,"Všeobecná ambulancia pre dospelých, MUDr. Gabriela Richtarčíková, Košice-Juh, (GARIMED spol. s r.o.)","Rastislavova 2258/98, 04001 Košice-Juh, Slovenská republika",ambulancia všeobecnej ambulantnej zdravotnej starostlivosti,"{""odborni_zastupcovania"": ""MUDr. Gabriela Richtar\u010d\u00edkov\u00e1 ako lek\u00e1r""}"
ambulancie_ksk.fid--1024a340_187273c7313_-604f,Hospital,48.739504,21.282459,"Všeobecná ambulancia pre deti a dorast, MUDr. Marta Rubovičová, Košice-Dargov.hrdinov, (RUBOPED s. r. o.)","Maršala Koneva 985/1, 04022 Košice-Dargov.hrdinov, Slovenská republika",ambulancia všeobecnej ambulantnej zdravotnej starostlivosti,"{""odborni_zastupcovania"": ""MUDr. Marta Rubovi\u010dov\u00e1 ako lek\u00e1r""}"
ambulancie_ksk.fid--1024a340_187273c7313_-604e,Hospital,48.725391,21.250609,"Všeobecná ambulancia pre dospelých, MUDr. Marin Rusenov, Košice-Staré Mesto, (MEDMARU, s.r.o.)","Pri Jazdiarni 1010/1, 04001 Košice-Staré Mesto, Slovenská republika",ambulancia všeobecnej ambulantnej zdravotnej starostlivosti,"{""odborni_zastupcovania"": ""MUDr. Marin Rusenov ako lek\u00e1r""}"
ambulancie_ksk.fid--1024a340_187273c7313_-604d,Hospital,48.726566,21.245656,"Všeobecná ambulancia pre deti a dorast, MUDr. Iveta Rusenova, Košice-Staré Mesto, (RUSENOVA - MED s.r.o.)","Československej armády 1175/18, 04001 Košice-Staré Mesto, Slovenská republika",ambulancia všeobecnej ambulantnej zdravotnej starostlivosti,"{""odborni_zastupcovania"": ""MUDr. Iveta Rusenova ako lek\u00e1r""}"
ambulancie_ksk.fid--1024a340_187273c7313_-604c,Hospital,48.71383,21.251049,"Všeobecná ambulancia pre dospelých, MUDr.Mgr. Štefánia Ružičková,MHA, Košice-Juh, (FANMED, s. r. o.)","Kukučínova 108/23, 04001 Košice-Juh, Slovenská republika",ambulancia všeobecnej ambulantnej zdravotnej starostlivosti,"{""odborni_zastupcovania"": ""MUDr. \u0160tef\u00e1nia Ru\u017ei\u010dkov\u00e1 ako lek\u00e1r""}"
ambulancie_ksk.fid--1024a340_187273c7313_-6048,Hospital,48.722164,21.237415,"Všeobecná ambulancia pre deti a dorast, MUDr. Miriam Salzerová, Košice-Západ, (SALZER s.r.o.)","Trieda SNP 457/1, 04011 Košice-Západ, Slovenská republika",ambulancia všeobecnej ambulantnej zdravotnej starostlivosti,"{""odborni_zastupcovania"": ""MUDr. Miriam Salzerov\u00e1 ako lek\u00e1r""}"
ambulancie_ksk.fid--1024a340_187273c7313_-6047,Hospital,48.707026,21.257608,"Všeobecná ambulancia pre deti a dorast, MUDr. Katarína Sedliaková, Košice-Juh, (KATSED s.r.o.)","Rastislavova 786/45, 04001 Košice-Juh, Slovenská republika",ambulancia všeobecnej ambulantnej zdravotnej starostlivosti,"{""odborni_zastupcovania"": ""MUDr. Katar\u00edna Sedliakov\u00e1 ako lek\u00e1r""}"
ambulancie_ksk.fid--1024a340_187273c7313_-6043,Hospital,48.739504,21.282459,"Všeobecná ambulancia pre dospelých, MUDr.Helena Širilová, Košice-Dargov.hrdinov, (Medix DH, s.r.o.)","Maršala Koneva 985/1, 04022 Košice-Dargov.hrdinov, Slovenská republika",ambulancia všeobecnej ambulantnej zdravotnej starostlivosti,"{""odborni_zastupcovania"": ""MUDr. Helena \u0160irilov\u00e1 ako lek\u00e1r""}"
ambulancie_ksk.fid--1024a340_187273c7313_-6041,Hospital,48.714765,21.216094,"Všeobecná ambulancia pre deti a dorast, MUDr. Gabriela Semanová, Košice-Sídlisko KVP, (GAVAS s.r.o.)","Cottbuská 1581/13, 04023 Košice-Sídlisko KVP, Slovenská republika",ambulancia všeobecnej ambulantnej zdravotnej starostlivosti,"{""odborni_zastupcovania"": ""MUDr. Gabriela Semanov\u00e1 ako lek\u00e1r""}"
ambulancie_ksk.fid--1024a340_187273c7313_-6039,Hospital,48.722164,21.237415,"Všeobecná ambulancia pre deti a dorast, MUDr. Jana Snopková, Košice-Západ, (MUDr. Snopková s.r.o.)","Trieda SNP 457/1, 04011 Košice-Západ, Slovenská republika",ambulancia všeobecnej ambulantnej zdravotnej starostlivosti,"{""odborni_zastupcovania"": ""MUDr. Jana Snopkov\u00e1 ako lek\u00e1r""}"
ambulancie_ksk.fid--1024a340_187273c7313_-6037,Hospital,48.722642,21.252702,"Všeobecná ambulancia pre dospelých, MUDr. Etela Sokolová, Košice-Staré Mesto, (MUDr. Etela Sokolová)","Poštová 542/15, 04001 Košice-Staré Mesto, Slovenská republika",ambulancia všeobecnej ambulantnej zdravotnej starostlivosti,"{""odborni_zastupcovania"": ""MUDr. Etela Sokolov\u00e1 ako lek\u00e1r""}"
ambulancie_ksk.fid--1024a340_187273c7313_-6036,Hospital,48.730431,21.240333,"Všeobecná ambulancia pre dospelých, MUDr. Ladislav Somogyi, Košice-Sever, (Ambulancia všeobecného lekára pre dospelých MUDr. Ladislav Somogyi, s. r. o.)","Hroncova 15/9, 04001 Košice-Sever, Slovenská republika",ambulancia všeobecnej ambulantnej zdravotnej starostlivosti,"{""odborni_zastupcovania"": ""MUDr. Ladislav Somogyi ako lek\u00e1r""}"
ambulancie_ksk.fid--1024a340_187273c7313_-602f,Hospital,48.721874,21.25222,"Všeobecná ambulancia pre dospelých, MUDr. Eva Spurná, Košice-Staré Mesto, (GP Doctor s.r.o.)","Moyzesova 1035/32, 04001 Košice-Staré Mesto, Slovenská republika",ambulancia všeobecnej ambulantnej zdravotnej starostlivosti,"{""odborni_zastupcovania"": ""MUDr. Eva Spurn\u00e1 ako lek\u00e1r""}"
ambulancie_ksk.fid--1024a340_187273c7313_-602e,Hospital,48.726566,21.245656,"Všeobecná ambulancia pre deti a dorast, MUDr. Janka Stašová, Košice-Staré Mesto, (STAJAMED s.r.o.)","Československej armády 1175/18, 04001 Košice-Staré Mesto, Slovenská republika",ambulancia všeobecnej ambulantnej zdravotnej starostlivosti,"{""odborni_zastupcovania"": ""MUDr. Janka Sta\u0161ov\u00e1 ako lek\u00e1r""}"
ambulancie_ksk.fid--1024a340_187273c7313_-602c,Hospital,48.718419,21.264905,"Všeobecná ambulancia pre dospelých, MUDr. Zuzana Prunyiová, Košice-Staré Mesto, (ZanaMed s.r.o.)","Protifašistických Bojovníkov 11, 04001 Košice-Staré Mesto, Slovenská republika",ambulancia všeobecnej ambulantnej zdravotnej starostlivosti,"{""odborni_zastupcovania"": ""MUDr. Zuzana Prunyiov\u00e1 ako lek\u00e1r""}"
ambulancie_ksk.fid--1024a340_187273c7313_-602a,Hospital,48.708961,21.25786,"Všeobecná ambulancia pre dospelých, MUDr. Katarína Straková, Košice-Juh, (AMBENE s.r.o.)","Smetanova 773/2, 04001 Košice-Juh, Slovenská republika",ambulancia všeobecnej ambulantnej zdravotnej starostlivosti,"{""odborni_zastupcovania"": ""MUDr. Strakov\u00e1 Katar\u00edna ako lek\u00e1r""}"
ambulancie_ksk.fid--1024a340_187273c7313_-6029,Hospital,48.744479,21.244842,"Všeobecná ambulancia pre dospelých, MUDr. Mária Szabariová, Košice-Sever, (AAAambulancia, s.r.o.)","Cesta pod Hradovou 802/13, 04001 Košice-Sever, Slovenská republika",ambulancia všeobecnej ambulantnej zdravotnej starostlivosti,"{""odborni_zastupcovania"": ""MUDr. M\u00e1ria Szabariov\u00e1 ako lek\u00e1r""}"
ambulancie_ksk.fid--1024a340_187273c7313_-6024,Hospital,48.707026,21.257608,"Všeobecná ambulancia pre dospelých, MUDr. Helga Závodníková, Košice-Juh, (MEDIPRO PLUS, s.r.o.)","Rastislavova 786/45, 04001 Košice-Juh, Slovenská republika",ambulancia všeobecnej ambulantnej zdravotnej starostlivosti,"{""odborni_zastupcovania"": ""MUDr. Helga Z\u00e1vodn\u00edkov\u00e1 ako lek\u00e1r""}"
ambulancie_ksk.fid--1024a340_187273c7313_-601e,Hospital,48.722164,21.237415,"Všeobecná ambulancia pre deti a dorast, MUDr. Jana Šefranková, Košice-Západ, (LIŠKOVÁ, MUDr., s.r.o.)","Trieda SNP 457/1, 04011 Košice-Západ, Slovenská republika",ambulancia všeobecnej ambulantnej zdravotnej starostlivosti,"{""odborni_zastupcovania"": ""MUDr. Jana \u0160efrankov\u00e1 ako lek\u00e1r""}"
ambulancie_ksk.fid--1024a340_187273c7313_-6019,Hospital,48.72161,21.261904,"Všeobecná ambulancia pre dospelých, MUDr. Patrícia Šimralová, Košice-Staré Mesto, (TACET s.r.o.)","Mlynská 898/26, 04001 Košice-Staré Mesto, Slovenská republika",ambulancia všeobecnej ambulantnej zdravotnej starostlivosti,"{""odborni_zastupcovania"": ""MUDr. Patr\u00edcia \u0160imralov\u00e1 ako lek\u00e1r""}"
ambulancie_ksk.fid--1024a340_187273c7313_-6018,Hospital,48.727288,21.251547,"Všeobecná ambulancia pre dospelých, MUDr. Tatiana Korenová, Košice-Staré Mesto, (SH MED s.r.o.)","Strojárenská 3426/11, 04001 Košice-Staré Mesto, Slovenská republika",ambulancia všeobecnej ambulantnej zdravotnej starostlivosti,"{""odborni_zastupcovania"": ""MUDr. Tatiana Korenov\u00e1 ako lek\u00e1r""}"
ambulancie_ksk.fid--1024a340_187273c7313_-6017,Hospital,48.735179,21.246073,"Všeobecná ambulancia pre dospelých, MUDr. Veronika Nováková, Košice-Sever, (MUDr.A, s.r.o.)","Urbánkova 1559/2, 04001 Košice-Sever, Slovenská republika",ambulancia všeobecnej ambulantnej zdravotnej starostlivosti,"{""odborni_zastupcovania"": ""MUDr. Veronika Nov\u00e1kov\u00e1 ako lek\u00e1r""}"
ambulancie_ksk.fid--1024a340_187273c7313_-6016,Hospital,48.725391,21.250609,"Všeobecná ambulancia pre dospelých, MUDr. Peter Šoltýs, Košice-Staré Mesto, (Salus vitae s.r.o.)","Pri Jazdiarni 1010/1, 04001 Košice-Staré Mesto, Slovenská republika",ambulancia všeobecnej ambulantnej zdravotnej starostlivosti,"{""odborni_zastupcovania"": ""\u0160olt\u00fds Peter MUDr. ako lek\u00e1r""}"
ambulancie_ksk.fid--1024a340_187273c7313_-6012,Hospital,48.726566,21.245656,"Všeobecná ambulancia pre dospelých, MUDr. Iveta Štofaníková, Košice-Staré Mesto, (MED - OAS s. r. o.)","Československej armády 1175/18, 04001 Košice-Staré Mesto, Slovenská republika",ambulancia všeobecnej ambulantnej zdravotnej starostlivosti,"{""odborni_zastupcovania"": ""MUDr. Iveta \u0160tofan\u00edkov\u00e1 ako lek\u00e1r""}"
ambulancie_ksk.fid--1024a340_187273c7313_-6011,Hospital,48.697108,21.221702,"Všeobecná ambulancia pre deti a dorast, Košice-Luník IX, (MUDr. Pavol Štroncer)","Krčméryho 435/4, 04011 Košice-Luník IX, Slovenská republika",ambulancia všeobecnej ambulantnej zdravotnej starostlivosti,"{""odborni_zastupcovania"": ""MUDr. Pavol \u0160troncer ako lek\u00e1r""}"
ambulancie_ksk.fid--1024a340_187273c7313_-6010,Hospital,48.726566,21.245656,"Všeobecná ambulancia pre dospelých, MUDr. Jarmila Šulcová, Košice-Staré Mesto, (MUDr. Jarmila Šulcová)","Československej armády 1175/18, 04001 Košice-Staré Mesto, Slovenská republika",ambulancia všeobecnej ambulantnej zdravotnej starostlivosti,"{""odborni_zastupcovania"": ""MUDr. Jarmila \u0160ulcov\u00e1 ako lek\u00e1r""}"
ambulancie_ksk.fid--1024a340_187273c7313_-6008,Hospital,48.718419,21.264905,"Všeobecná ambulancia pre dospelých, MUDr. Ján Telepovský, Košice-Staré Mesto, (MUDr. Ján Telepovský)","Protifašistických Bojovníkov  11, 04001 Košice-Staré Mesto, Slovenská republika",ambulancia všeobecnej ambulantnej zdravotnej starostlivosti,"{""odborni_zastupcovania"": ""MUDr. J\u00e1n Telepovsk\u00fd ako lek\u00e1r""}"
ambulancie_ksk.fid--1024a340_187273c7313_-6007,Hospital,48.70786,21.259845,"Všeobecná ambulancia pre dospelých, Magistr Kremena Bakalárová, Košice-Juh, (MEDICAL GROUP, s.r.o.)","Mudroňova 29, 04001 Košice-Juh, Slovenská republika",ambulancia všeobecnej ambulantnej zdravotnej starostlivosti,"{""odborni_zastupcovania"": ""Mgr. Kremena Bakal\u00e1rov\u00e1 ako lek\u00e1r""}"
ambulancie_ksk.fid--1024a340_187273c7313_-6002,Hospital,48.731311,21.250681,"Všeobecná ambulancia pre deti a dorast, MUDr. Katarína Gombošová, PhD., Košice-Sever, (MEDTOM, s.r.o.)","Komenského 3678/37, 04001 Košice-Sever, Slovenská republika",ambulancia všeobecnej ambulantnej zdravotnej starostlivosti,"{""odborni_zastupcovania"": ""MUDr. M\u00e1ria Tom\u00e1\u0161kov\u00e1 ako lek\u00e1r, MUDr. Katar\u00edna Gombo\u0161ov\u00e1, PhD. ako lek\u00e1r""}"
ambulancie_ksk.fid--1024a340_187273c7313_-5fff,Hospital,48.728767,21.241499,"Všeobecná ambulancia pre dospelých, MUDr. Katarína Šajtyová, Košice-Sever, (Cievna klinika - IMEA, s.r.o.)","Letná 11/45, 04001 Košice-Sever, Slovenská republika",ambulancia všeobecnej ambulantnej zdravotnej starostlivosti,"{""odborni_zastupcovania"": ""Torma Norbert MUDr. ako lek\u00e1r""}"
ambulancie_ksk.fid--1024a340_187273c7313_-5ffd,Hospital,48.724969,21.243461,"Všeobecná ambulancia pre deti a dorast, MUDr. Oľga Trebišovská, Košice-Staré Mesto, (TISS, spol. s r.o.)","Tatranská 1232/25, 04001 Košice-Staré Mesto, Slovenská republika",ambulancia všeobecnej ambulantnej zdravotnej starostlivosti,"{""odborni_zastupcovania"": ""MUDr. O\u013ega Trebi\u0161ovsk\u00e1 ako lek\u00e1r""}"
ambulancie_ksk.fid--1024a340_187273c7313_-5ffc,Hospital,48.715814,21.231377,"Všeobecná ambulancia pre dospelých, MUDr. Adriana Trejbalová, Košice-Západ, (LECHMED, s.r.o.)","Brigádnická 2276/2A, 04011 Košice-Západ, Slovenská republika",ambulancia všeobecnej ambulantnej zdravotnej starostlivosti,"{""odborni_zastupcovania"": ""MUDr. Adriana Trejbalov\u00e1 ako lek\u00e1r""}"
ambulancie_ksk.fid--1024a340_187273c7313_-5ff7,Hospital,48.70813,21.237199,"Všeobecná ambulancia pre dospelých, MUDr. Milan Urda, Košice-Západ, (MUDr. Milan Urda)","Trieda SNP 339/88, 04011 Košice-Západ, Slovenská republika",ambulancia všeobecnej ambulantnej zdravotnej starostlivosti,"{""odborni_zastupcovania"": ""MUDr. Milan Urda ako lek\u00e1r""}"
ambulancie_ksk.fid--1024a340_187273c7313_-5ff1,Hospital,48.713591,21.216302,"Všeobecná ambulancia pre deti a dorast, MUDr. Ladislav Várady, Košice-Sídlisko KVP, (VÁRADY s.r.o.)","Cottbuská 11, 04023 Košice-Sídlisko KVP, Slovenská republika",ambulancia všeobecnej ambulantnej zdravotnej starostlivosti,"{""odborni_zastupcovania"": ""MUDr. Ladislav V\u00e1rady ako lek\u00e1r""}"
ambulancie_ksk.fid--1024a340_187273c7313_-5fef,Hospital,48.713668,21.216886,"Všeobecná ambulancia pre dospelých, MUDr. Ladislav Varga, Košice-Sídlisko KVP, (TAZARBU, spoločnosť s ručením obmedzeným)","Cottbuská 13, 04023 Košice-Sídlisko KVP, Slovenská republika",ambulancia všeobecnej ambulantnej zdravotnej starostlivosti,"{""odborni_zastupcovania"": ""MUDr. Ladislav Varga ako lek\u00e1r""}"
ambulancie_ksk.fid--1024a340_187273c7313_-5fec,Hospital,48.722164,21.237415,"Všeobecná ambulancia pre dospelých, MUDr. Tomáš Galko, Košice-Západ, (TAZARBU, spoločnosť s ručením obmedzeným)","Trieda SNP 457/1, 04011 Košice-Západ, Slovenská republika",ambulancia všeobecnej ambulantnej zdravotnej starostlivosti,"{""odborni_zastupcovania"": ""MUDr. Tom\u00e1\u0161 Galko ako lek\u00e1r""}"
ambulancie_ksk.fid--1024a340_187273c7313_-5fea,Hospital,48.731311,21.250681,"Všeobecná ambulancia pre deti a dorast, MUDr. Anna Szabóová, Košice-Sever, (BENEPED s.r.o.)","Komenského 3678/37, 04001 Košice-Sever, Slovenská republika",ambulancia všeobecnej ambulantnej zdravotnej starostlivosti,"{""odborni_zastupcovania"": ""MUDr. Anna Szab\u00f3ov\u00e1 ako lek\u00e1r""}"
ambulancie_ksk.fid--1024a340_187273c7313_-5fe8,Hospital,48.727288,21.251547,"Všeobecná ambulancia pre dospelých, MUDr. Marián Medera, Košice-Staré Mesto, (MEDIX s. r. o.)","Strojárenská 3426/11, 04001 Košice-Staré Mesto, Slovenská republika",ambulancia všeobecnej ambulantnej zdravotnej starostlivosti,"{""odborni_zastupcovania"": ""MUDr. Mari\u00e1n Medera ako lek\u00e1r""}"
ambulancie_ksk.fid--1024a340_187273c7313_-5fe7,Hospital,48.714765,21.216094,"Všeobecná ambulancia pre dospelých, MUDr. Valéria Vasiľová, Košice-Sídlisko KVP, (MUDr. Valéria Vasiľová)","Cottbuská 1581/13, 04023 Košice-Sídlisko KVP, Slovenská republika",ambulancia všeobecnej ambulantnej zdravotnej starostlivosti,"{""odborni_zastupcovania"": ""MUDr. Val\u00e9ria Vasi\u013eov\u00e1 ako lek\u00e1r""}"
ambulancie_ksk.fid--1024a340_187273c7313_-5fdc,Hospital,48.722164,21.237415,"Všeobecná ambulancia pre deti a dorast, MUDr. Lýdia Zborovjanová, Košice-Západ, (PEDMED s. r. o.)","Trieda SNP 457/1, 04011 Košice-Západ, Slovenská republika",ambulancia všeobecnej ambulantnej zdravotnej starostlivosti,"{""odborni_zastupcovania"": ""MUDr. L\u00fddia Zborovjanov\u00e1 ako lek\u00e1r""}"
ambulancie_ksk.fid--1024a340_187273c7313_-5fc4,Hospital,48.710226,21.232813,"Všeobecná ambulancia pre dospelých, MUDr. Darina Čechová, Košice-Západ, (Dr. Čechová, s.r.o.)","Gudernova 292/3, 04011 Košice-Západ, Slovenská republika",ambulancia všeobecnej ambulantnej zdravotnej starostlivosti,"{""odborni_zastupcovania"": ""MUDr. Darina \u010cechov\u00e1 ako lek\u00e1r""}"
ambulancie_ksk.fid--1024a340_187273c7313_-5fc0,Hospital,48.731311,21.250681,"Všeobecná ambulancia pre deti a dorast, MUDr. Marta Kičková, Košice-Sever, (Pedia Care s.r.o.)","Komenského 3678/37, 04001 Košice-Sever, Slovenská republika",ambulancia všeobecnej ambulantnej zdravotnej starostlivosti,"{""odborni_zastupcovania"": ""MUDr. Magdal\u00e9na Dud\u00e1\u0161ov\u00e1 ako lek\u00e1r, MUDr. Marta Ki\u010dkov\u00e1 ako lek\u00e1r""}"
ambulancie_ksk.fid--1024a340_187273c7313_-5fbe,Hospital,48.735565,21.271926,"Všeobecná ambulancia pre dospelých, MUDr. Ján Béreš, Košice-Staré Mesto, (JLB DOCTOR s. r. o.)","Rampová 1731/7, 04001 Košice-Staré Mesto, Slovenská republika",ambulancia všeobecnej ambulantnej zdravotnej starostlivosti,"{""odborni_zastupcovania"": ""MUDr. J\u00e1n B\u00e9re\u0161 ako lek\u00e1r""}"
ambulancie_ksk.fid--1024a340_187273c7313_-5fbd,Hospital,48.735179,21.246073,"Všeobecná ambulancia pre dospelých, MUDr. Valéria Vancáková, Košice-Sever, (VV MED s.r.o.)","Urbánkova 1559/2, 04001 Košice-Sever, Slovenská republika",ambulancia všeobecnej ambulantnej zdravotnej starostlivosti,"{""odborni_zastupcovania"": ""MUDr. Val\u00e9ria Vanc\u00e1kov\u00e1 ako lek\u00e1r""}"
ambulancie_ksk.fid--1024a340_187273c7313_-5fba,Hospital,48.713561,21.230944,"Všeobecná ambulancia pre dospelých, MUDr. Ľubomíra Dilýová, Košice-Západ, (Poliklinika Terasa s.r.o.)","Poliklinika Terasa, Toryská 275/1, 04011 Košice-Západ, Slovenská republika",ambulancia všeobecnej ambulantnej zdravotnej starostlivosti,"{""odborni_zastupcovania"": ""MUDr. Franti\u0161ek Daboczi ako lek\u00e1r""}"
ambulancie_ksk.fid--1024a340_187273c7313_-5fb9,Hospital,48.713561,21.230944,"Všeobecná ambulancia pre deti a dorast, MUDr. Eva Adamcová, Košice-Západ, (Poliklinika Terasa s.r.o.)","Poliklinika Terasa, Toryská 275/1, 04011 Košice-Západ, Slovenská republika",ambulancia všeobecnej ambulantnej zdravotnej starostlivosti,"{""odborni_zastupcovania"": ""MUDr. Franti\u0161ek Daboczi ako lek\u00e1r""}"
ambulancie_ksk.fid--1024a340_187273c7313_-5fb8,Hospital,48.715814,21.231377,"Všeobecná ambulancia pre dospelých, Košice-Západ, (Poliklinika Centrum s.r.o.)","Brigádnická 2276/2A, 04011 Košice-Západ, Slovenská republika",ambulancia všeobecnej ambulantnej zdravotnej starostlivosti,"{""odborni_zastupcovania"": ""MUDr. Eva Buks\u00e1rov\u00e1 ako lek\u00e1r""}"
ambulancie_ksk.fid--1024a340_187273c7313_-5fb7,Hospital,48.715814,21.231377,"Všeobecná ambulancia pre deti a dorast, Košice-Západ, (Poliklinika Centrum s.r.o.)","Brigádnická 2276/2A, 04011 Košice-Západ, Slovenská republika",ambulancia všeobecnej ambulantnej zdravotnej starostlivosti,"{""odborni_zastupcovania"": ""MUDr. Eva Buks\u00e1rov\u00e1 ako lek\u00e1r""}"
ambulancie_ksk.fid--1024a340_187273c7313_-5fb6,Hospital,48.707026,21.257608,"Všeobecná ambulancia pre dospelých, Košice-Juh, (Cumulus s.r.o.)","Rastislavova 786/45, 04001 Košice-Juh, Slovenská republika",ambulancia všeobecnej ambulantnej zdravotnej starostlivosti,"{""odborni_zastupcovania"": ""Popik Vojtech MUDr. ako lek\u00e1r""}"
ambulancie_ksk.fid--1024a340_187273c7313_-5fb5,Hospital,48.707026,21.257608,"Všeobecná ambulancia pre dospelých, Košice-Juh, (Cumulus s.r.o.)","Rastislavova 786/45, 04001 Košice-Juh, Slovenská republika",ambulancia všeobecnej ambulantnej zdravotnej starostlivosti,"{""odborni_zastupcovania"": ""Popik Vojtech MUDr. ako lek\u00e1r""}"
ambulancie_ksk.fid--1024a340_187273c7313_-5fb4,Hospital,48.707026,21.257608,"Všeobecná ambulancia pre deti a dorast, Košice-Juh, (Cumulus s.r.o.)","Rastislavova 786/45, 04001 Košice-Juh, Slovenská republika",ambulancia všeobecnej ambulantnej zdravotnej starostlivosti,"{""odborni_zastupcovania"": ""Popik Vojtech MUDr. ako lek\u00e1r""}"
ambulancie_ksk.fid--1024a340_187273c7313_-5fb2,Hospital,48.708033,21.24471,"Všeobecná ambulancia pre dospelých, MUDr. Peter Smolnický,, Košice-Západ, (Ergomed Poliklinika, s.r.o.)","Moldavská 1360/21, 04011 Košice-Západ, Slovenská republika",ambulancia všeobecnej ambulantnej zdravotnej starostlivosti,"{""odborni_zastupcovania"": ""MUDr. Mirwais Abdi ako lek\u00e1r""}"
ambulancie_ksk.fid--1024a340_187273c7313_-5fb1,Hospital,48.720537,21.211682,"Všeobecná ambulancia pre dospelých, MUDr. Miroslav Henžel, MUDr. Barlová Jana, MUDr. Lakatoš Alexander, Košice-Sídlisko KVP, (Poliklinika ProCare Košice s.r.o.)","Jána Pavla II. 3130/5, 04023 Košice-Sídlisko KVP, Slovenská republika",ambulancia všeobecnej ambulantnej zdravotnej starostlivosti,"{""odborni_zastupcovania"": ""MUDr. Peter Majer ako lek\u00e1r""}"
ambulancie_ksk.fid--1024a340_187273c7313_-5fb0,Hospital,48.720537,21.211682,"Všeobecná ambulancia pre deti a dorast, MUDr. Adriena Tencerová, Košice-Sídlisko KVP, (Poliklinika ProCare Košice s.r.o.)","Jána Pavla II. 3130/5, 04023 Košice-Sídlisko KVP, Slovenská republika",ambulancia všeobecnej ambulantnej zdravotnej starostlivosti,"{""odborni_zastupcovania"": ""MUDr. Peter Majer ako lek\u00e1r""}"
ambulancie_ksk.fid--1024a340_187273c7313_-5fab,Hospital,48.717932,21.256228,"Všeobecná ambulancia pre dospelých, Košice-Staré Mesto, (Letecká vojenská nemocnica, a. s.)","Murgašova 1, 04086 Košice-Staré Mesto, Slovenská republika",ambulancia všeobecnej ambulantnej zdravotnej starostlivosti,"{""odborni_zastupcovania"": ""MUDr. \u013dubom\u00edr Hud\u00e1k ako lek\u00e1r, MUDr. Babjak Pavel ako lek\u00e1r""}"
ambulancie_ksk.fid--1024a340_187273c7313_-5faa,Hospital,48.717932,21.256228,"Všeobecná ambulancia pre dospelých, Košice-Staré Mesto, (Letecká vojenská nemocnica, a. s.)","Murgašova 1, 04086 Košice-Staré Mesto, Slovenská republika",ambulancia všeobecnej ambulantnej zdravotnej starostlivosti,"{""odborni_zastupcovania"": ""MUDr. \u013dubom\u00edr Hud\u00e1k ako lek\u00e1r, MUDr. Babjak Pavel ako lek\u00e1r""}"
ambulancie_ksk.fid--1024a340_187273c7313_-5fa9,Hospital,48.717932,21.256228,"Všeobecná ambulancia pre dospelých, Košice-Staré Mesto, (Letecká vojenská nemocnica, a. s.)","Murgašova 1, 04086 Košice-Staré Mesto, Slovenská republika",ambulancia všeobecnej ambulantnej zdravotnej starostlivosti,"{""odborni_zastupcovania"": ""MUDr. \u013dubom\u00edr Hud\u00e1k ako lek\u00e1r, MUDr. Babjak Pavel ako lek\u00e1r""}"
ambulancie_ksk.fid--1024a340_187273c7313_-5fa6,Hospital,48.718188,21.246042,"Všeobecná ambulancia pre dospelých, Košice-Staré Mesto, (Nemocnica AGEL Košice-Šaca a.s.)","Žriedlová 3384/11, 04001 Košice-Staré Mesto, Slovenská republika",ambulancia všeobecnej ambulantnej zdravotnej starostlivosti,"{""odborni_zastupcovania"": ""MUDr. Pavol Rusn\u00e1k, MBA ako lek\u00e1r""}"
ambulancie_ksk.fid--1024a340_187273c7313_-5fa5,Hospital,48.728797,21.242716,"Všeobecná ambulancia pre dospelých, Košice-Sever, (Nemocnica AGEL Košice-Šaca a.s.)","Letná 40, 04001 Košice-Sever, Slovenská republika",ambulancia všeobecnej ambulantnej zdravotnej starostlivosti,"{""odborni_zastupcovania"": ""MUDr. J\u00e1n Sl\u00e1vik ako lek\u00e1r, doc. MUDr. J\u00e1n Sl\u00e1vik, CSc. ako zubn\u00fd lek\u00e1r""}"
ambulancie_ksk.fid--1024a340_187273c7313_-5f93,Hospital,48.707791,21.257309,"Všeobecná ambulancia pre dospelých, Košice-Juh, (Univerzitná nemocnica L. Pasteura Košice)","Rastislavova 43, 04190 Košice-Juh, Slovenská republika",ambulancia všeobecnej ambulantnej zdravotnej starostlivosti,"{""odborni_zastupcovania"": ""MUDr. \u013duboslav Be\u0148a , PhD. ako lek\u00e1r, MUDr. Du\u0161an Hrubala, CSc. ako zubn\u00fd lek\u00e1r""}"
ambulancie_ksk.fid--1024a340_187273c7313_-5f92,Hospital,48.723221,21.236872,"Všeobecná ambulancia, Košice-Západ, (Univerzitná nemocnica L. Pasteura Košice)","Trieda SNP 1, 04011 Košice-Západ, Slovenská republika",ambulancia všeobecnej ambulantnej zdravotnej starostlivosti,"{""odborni_zastupcovania"": ""MUDr. \u013duboslav Be\u0148a , PhD. ako lek\u00e1r, MUDr. Du\u0161an Hrubala, CSc. ako zubn\u00fd lek\u00e1r""}"
ambulancie_ksk.fid--1024a340_187273c7313_-5f8f,Hospital,48.722164,21.237415,"Všeobecná ambulancia, MUDr. Róbert Roland, Košice-Západ, (FMC - dialyzačné služby, s.r.o.)","Trieda SNP 457/1, 04011 Košice-Západ, Slovenská republika",ambulancia všeobecnej ambulantnej zdravotnej starostlivosti,"{""odborni_zastupcovania"": ""MUDr. Mahmoud Hassan ako lek\u00e1r""}"
ambulancie_ksk.fid--1024a340_187273c7313_-5f8d,Hospital,48.739504,21.282459,"Všeobecná ambulancia pre dospelých, MUDr. Iveta Šurinová, Košice-Dargov.hrdinov, (PaPe Med s.r.o.)","Maršala Koneva 985/1, 04022 Košice-Dargov.hrdinov, Slovenská republika",ambulancia všeobecnej ambulantnej zdravotnej starostlivosti,"{""odborni_zastupcovania"": ""MUDr. Iveta \u0160urinov\u00e1 ako lek\u00e1r""}"
ambulancie_ksk.fid--1024a340_187273c7313_-5f8c,Hospital,48.728767,21.241499,"Všeobecná ambulancia pre dospelých, MUDr. Matej Šajty, PhD., MPH, MBA, Košice-Sever, (MEDICOMP KOŠICE s.r.o.)","Letná 11/45, 04001 Košice-Sever, Slovenská republika",ambulancia všeobecnej ambulantnej zdravotnej starostlivosti,"{""odborni_zastupcovania"": ""MUDr. Matej \u0160ajty, PhD., MBA, MPH ako lek\u00e1r""}"
ambulancie_ksk.fid--1024a340_187273c7313_-5f89,Hospital,48.717194,21.251356,"Všeobecná ambulancia pre dospelých, Košice-Staré Mesto, (Univerzitná nemocnica - Nemocnica svätého Michala, a. s.)","Ministerstvo vnútra SR, Centrum podpory Košice, Kuzmányho 8, 04102 Košice-Staré Mesto, Slovenská republika",ambulancia všeobecnej ambulantnej zdravotnej starostlivosti,"{""odborni_zastupcovania"": ""MDDr. Katar\u00edna Harmatov\u00e1 ako zubn\u00fd lek\u00e1r, MUDr. Ladislav Valach, PhD. ako lek\u00e1r, MUDr. \u013dubica \u0160ab\u00edkov\u00e1 ako in\u00fd zdravotn\u00edcky pracovn\u00edk - psychol\u00f3g, MUDr. M\u00e1ria Reisov\u00e1 ako lek\u00e1r, MUDr. Vladim\u00edr Rosina ako lek\u00e1r, MUDr. Milan Vysko\u010dil, PhD. ako lek\u00e1r, MUDr. Alexandra Hadriov\u00e1 ako lek\u00e1r, MUDr. Lucia Mihaleov\u00e1 ako lek\u00e1r, MUDr. Katar\u00edna Hricov\u00e1 ako lek\u00e1r, MUDr. Adriana Petrusov\u00e1 ako lek\u00e1r, MUDr. Eva Poluchov\u00e1 ako lek\u00e1r, MUDr. Alfonz Bala\u017eovi\u010d ako lek\u00e1r, MUDr. Ivan Andr\u00e9, PhD., MPH ako lek\u00e1r, MUDr. M\u00e1ria Mal\u00e1kov\u00e1 ako lek\u00e1r""}"
ambulancie_ksk.fid--1024a340_187273c7313_-5f87,Hospital,48.718828,21.262222,"Všeobecná ambulancia pre deti a dorast, MUDr. Beáta Nemčoková, Košice-Staré Mesto, (AVITASK, s.r.o.)","Rooseveltova 806/18, 04001 Košice-Staré Mesto, Slovenská republika",ambulancia všeobecnej ambulantnej zdravotnej starostlivosti,"{""odborni_zastupcovania"": ""MUDr. Be\u00e1ta Nem\u010dokov\u00e1 ako lek\u00e1r""}"
ambulancie_ksk.fid--1024a340_187273c7313_-5f82,Hospital,48.726817,21.250076,"Všeobecná ambulancia pre dospelých, Košice-Staré Mesto, (Vysokošpecializovaný odborný ústav geriatrický sv. Lukáša v Košiciach n. o.)","Strojárenská 1099/13, 04001 Košice-Staré Mesto, Slovenská republika",ambulancia všeobecnej ambulantnej zdravotnej starostlivosti,"{""odborni_zastupcovania"": ""MUDr. Krist\u00edna Kop\u010dov\u00e1 ako lek\u00e1r""}"
ambulancie_ksk.fid--1024a340_187273c7313_-5f80,Hospital,48.717194,21.251356,"Všeobecná ambulancia pre dospelých MUDr. Pavol Petróci, Košice-Staré Mesto, (Univerzitná nemocnica - Nemocnica svätého Michala, a. s.)","Ministerstvo vnútra SR, Centrum podpory Košice, Kuzmányho 8, 04102 Košice-Staré Mesto, Slovenská republika",ambulancia všeobecnej ambulantnej zdravotnej starostlivosti,"{""odborni_zastupcovania"": ""MDDr. Katar\u00edna Harmatov\u00e1 ako zubn\u00fd lek\u00e1r, MUDr. Ladislav Valach, PhD. ako lek\u00e1r, MUDr. \u013dubica \u0160ab\u00edkov\u00e1 ako in\u00fd zdravotn\u00edcky pracovn\u00edk - psychol\u00f3g, MUDr. M\u00e1ria Reisov\u00e1 ako lek\u00e1r, MUDr. Vladim\u00edr Rosina ako lek\u00e1r, MUDr. Milan Vysko\u010dil, PhD. ako lek\u00e1r, MUDr. Alexandra Hadriov\u00e1 ako lek\u00e1r, MUDr. Lucia Mihaleov\u00e1 ako lek\u00e1r, MUDr. Katar\u00edna Hricov\u00e1 ako lek\u00e1r, MUDr. Adriana Petrusov\u00e1 ako lek\u00e1r, MUDr. Eva Poluchov\u00e1 ako lek\u00e1r, MUDr. Alfonz Bala\u017eovi\u010d ako lek\u00e1r, MUDr. Ivan Andr\u00e9, PhD., MPH ako lek\u00e1r, MUDr. M\u00e1ria Mal\u00e1kov\u00e1 ako lek\u00e1r""}"
ambulancie_ksk.fid--1024a340_187273c7313_-5f7f,Hospital,48.717194,21.251356,"Všeobecná ambulancia pre dospelých MUDr. Jana Rexová, Košice, Košice-Staré Mesto, (Univerzitná nemocnica - Nemocnica svätého Michala, a. s.)","Ministerstvo vnútra SR, Centrum podpory Košice, Kuzmányho 8, 04102 Košice-Staré Mesto, Slovenská republika",ambulancia všeobecnej ambulantnej zdravotnej starostlivosti,"{""odborni_zastupcovania"": ""MDDr. Katar\u00edna Harmatov\u00e1 ako zubn\u00fd lek\u00e1r, MUDr. Ladislav Valach, PhD. ako lek\u00e1r, MUDr. \u013dubica \u0160ab\u00edkov\u00e1 ako in\u00fd zdravotn\u00edcky pracovn\u00edk - psychol\u00f3g, MUDr. M\u00e1ria Reisov\u00e1 ako lek\u00e1r, MUDr. Vladim\u00edr Rosina ako lek\u00e1r, MUDr. Milan Vysko\u010dil, PhD. ako lek\u00e1r, MUDr. Alexandra Hadriov\u00e1 ako lek\u00e1r, MUDr. Lucia Mihaleov\u00e1 ako lek\u00e1r, MUDr. Katar\u00edna Hricov\u00e1 ako lek\u00e1r, MUDr. Adriana Petrusov\u00e1 ako lek\u00e1r, MUDr. Eva Poluchov\u00e1 ako lek\u00e1r, MUDr. Alfonz Bala\u017eovi\u010d ako lek\u00e1r, MUDr. Ivan Andr\u00e9, PhD., MPH ako lek\u00e1r, MUDr. M\u00e1ria Mal\u00e1kov\u00e1 ako lek\u00e1r""}"
ambulancie_ksk.fid--1024a340_187273c7313_-5f7e,Hospital,48.72812,21.259463,"Všeobecná ambulancia pre dospelých, Košice-Staré Mesto, (Železničné zdravotníctvo Košice, s.r.o.)","Masarykova 1632/9, 04001 Košice-Staré Mesto, Slovenská republika",ambulancia všeobecnej ambulantnej zdravotnej starostlivosti,"{""odborni_zastupcovania"": ""MUDr. Libor Marko, CSc. ako lek\u00e1r, MUDr. Ferdinand He\u010dko ako lek\u00e1r, PhDr. Val\u00e9ria Samselyov\u00e1 ako in\u00fd zdravotn\u00edcky pracovn\u00edk - psychol\u00f3g""}"
ambulancie_ksk.fid--1024a340_187273c7313_-5f78,Hospital,48.72812,21.259463,"Všeobecná ambulancia pre dospelých, Košice-Staré Mesto, (Železničné zdravotníctvo Košice, s.r.o.)","Masarykova 1632/9, 04001 Košice-Staré Mesto, Slovenská republika",ambulancia všeobecnej ambulantnej zdravotnej starostlivosti,"{""odborni_zastupcovania"": ""MUDr. Libor Marko, CSc. ako lek\u00e1r, MUDr. Ferdinand He\u010dko ako lek\u00e1r, PhDr. Val\u00e9ria Samselyov\u00e1 ako in\u00fd zdravotn\u00edcky pracovn\u00edk - psychol\u00f3g""}"
ambulancie_ksk.fid--1024a340_187273c7313_-5f77,Hospital,48.72812,21.259463,"Všeobecná ambulancia pre dospelých, Košice-Staré Mesto, (Železničné zdravotníctvo Košice, s.r.o.)","Masarykova 1632/9, 04001 Košice-Staré Mesto, Slovenská republika",ambulancia všeobecnej ambulantnej zdravotnej starostlivosti,"{""odborni_zastupcovania"": ""MUDr. Libor Marko, CSc. ako lek\u00e1r, MUDr. Ferdinand He\u010dko ako lek\u00e1r, PhDr. Val\u00e9ria Samselyov\u00e1 ako in\u00fd zdravotn\u00edcky pracovn\u00edk - psychol\u00f3g""}"
ambulancie_ksk.fid--1024a340_187273c7313_-5f6f,Hospital,48.708988,21.257455,"GOLIANOVÁ s.r.o., Košice-Juh, (GOLIANOVÁ s.r.o.)","Rastislavova 773/42, 04001 Košice-Juh, Slovenská republika",ambulancia všeobecnej ambulantnej zdravotnej starostlivosti,"{""odborni_zastupcovania"": ""MUDr. Alena Golianov\u00e1 ako lek\u00e1r""}"
ambulancie_ksk.fid--1024a340_187273c7313_-5f6d,Hospital,48.718828,21.262222,"Všeobecná ambulancia pre deti a dorast, MUDr. Karolína Vasiľková, Košice-Staré Mesto, (ZANGL s.r.o.)","Rooseveltova 806/18, 04001 Košice-Staré Mesto, Slovenská republika",ambulancia všeobecnej ambulantnej zdravotnej starostlivosti,"{""odborni_zastupcovania"": ""MUDr. Karol\u00edna Vasi\u013ekov\u00e1 ako lek\u00e1r""}"
ambulancie_ksk.fid--1024a340_187273c7313_-5f68,Hospital,48.717194,21.251356,"Všeobecná ambulancia pre dospelých MUDr. Kristína Raganová, Košice-Staré Mesto, (Univerzitná nemocnica - Nemocnica svätého Michala, a. s.)","Ministerstvo vnútra SR, Centrum podpory Košice, Kuzmányho 8, 04102 Košice-Staré Mesto, Slovenská republika",ambulancia všeobecnej ambulantnej zdravotnej starostlivosti,"{""odborni_zastupcovania"": ""MDDr. Katar\u00edna Harmatov\u00e1 ako zubn\u00fd lek\u00e1r, MUDr. Ladislav Valach, PhD. ako lek\u00e1r, MUDr. \u013dubica \u0160ab\u00edkov\u00e1 ako in\u00fd zdravotn\u00edcky pracovn\u00edk - psychol\u00f3g, MUDr. M\u00e1ria Reisov\u00e1 ako lek\u00e1r, MUDr. Vladim\u00edr Rosina ako lek\u00e1r, MUDr. Milan Vysko\u010dil, PhD. ako lek\u00e1r, MUDr. Alexandra Hadriov\u00e1 ako lek\u00e1r, MUDr. Lucia Mihaleov\u00e1 ako lek\u00e1r, MUDr. Katar\u00edna Hricov\u00e1 ako lek\u00e1r, MUDr. Adriana Petrusov\u00e1 ako lek\u00e1r, MUDr. Eva Poluchov\u00e1 ako lek\u00e1r, MUDr. Alfonz Bala\u017eovi\u010d ako lek\u00e1r, MUDr. Ivan Andr\u00e9, PhD., MPH ako lek\u00e1r, MUDr. M\u00e1ria Mal\u00e1kov\u00e1 ako lek\u00e1r""}"
ambulancie_ksk.fid--1024a340_187273c7313_-5f65,Hospital,48.708033,21.24471,"Všeobecná ambulancia pre dospelých, MUDr. Peter Smonický, Košice-Západ, (Ergomed Poliklinika, s.r.o.)","Moldavská 1360/21, 04011 Košice-Západ, Slovenská republika",ambulancia všeobecnej ambulantnej zdravotnej starostlivosti,"{""odborni_zastupcovania"": ""MUDr. Mirwais Abdi ako lek\u00e1r""}"
ambulancie_ksk.fid--1024a340_187273c7313_-5f63,Hospital,48.718188,21.246042,"Všeobecná ambulancia pre dospelých, Košice-Staré Mesto, (Nemocnica AGEL Košice-Šaca a.s.)","Žriedlová 3384/11, 04001 Košice-Staré Mesto, Slovenská republika",ambulancia všeobecnej ambulantnej zdravotnej starostlivosti,"{""odborni_zastupcovania"": ""MUDr. Pavol Rusn\u00e1k, MBA ako lek\u00e1r""}"
ambulancie_ksk.fid--1024a340_187273c7313_-5f5f,Hospital,48.717932,21.256228,"Všeobecná ambulancia pre dospelých, Košice-Staré Mesto, (Letecká vojenská nemocnica, a. s.)","Murgašova 1, 04086 Košice-Staré Mesto, Slovenská republika",ambulancia všeobecnej ambulantnej zdravotnej starostlivosti,"{""odborni_zastupcovania"": ""MUDr. \u013dubom\u00edr Hud\u00e1k ako lek\u00e1r, MUDr. Babjak Pavel ako lek\u00e1r""}"
ambulancie_ksk.fid--1024a340_187273c7313_-5f5e,Hospital,48.715814,21.231377,"Všeobecná ambulancia pre dospelých, Košice-Západ, (Poliklinika Centrum s.r.o.)","Brigádnická 2276/2A, 04011 Košice-Západ, Slovenská republika",ambulancia všeobecnej ambulantnej zdravotnej starostlivosti,"{""odborni_zastupcovania"": ""MUDr. Eva Buks\u00e1rov\u00e1 ako lek\u00e1r""}"
ambulancie_ksk.fid--1024a340_187273c7313_-5f5d,Hospital,48.731311,21.250681,"Všeobecná ambulancia pre deti a dorast, Košice-Sever, (DYNAMED s.r.o.)","Poliklinika Sever, Komenského 3678/37, 04001 Košice-Sever, Slovenská republika",ambulancia všeobecnej ambulantnej zdravotnej starostlivosti,"{""odborni_zastupcovania"": ""MUDr. Dana Vojtkov\u00e1 ako lek\u00e1r""}"
ambulancie_ksk.fid--1024a340_187273c7313_-5f47,Hospital,48.717563,21.248099,"Všeobecná ambulancia pre dospelých, Košice-Staré Mesto, (Nemocnica pre obvinených a odsúdených a Ústav na výkon trestu odňatia slobody Trenčín)","ÚVTOS a ÚVV, Floriánska 18, 04142 Košice-Staré Mesto, Slovenská republika",ambulancia všeobecnej ambulantnej zdravotnej starostlivosti,"{""odborni_zastupcovania"": ""MUDr. R\u00f3bert Fullka ako lek\u00e1r""}"
ambulancie_ksk.fid--1024a340_187273c7313_-5f46,Hospital,48.717563,21.248099,"Všeobecná ambulancia pre dospelých, MUDr. Andrea Olejárová, Košice-Staré Mesto, (Nemocnica pre obvinených a odsúdených a Ústav na výkon trestu odňatia slobody Trenčín)","ÚVTOS a ÚVV, Floriánska 18, 04142 Košice-Staré Mesto, Slovenská republika",ambulancia všeobecnej ambulantnej zdravotnej starostlivosti,"{""odborni_zastupcovania"": ""MUDr. R\u00f3bert Fullka ako lek\u00e1r""}"
ambulancie_ksk.fid--1024a340_187273c7313_-5f42,Hospital,48.715814,21.231377,"Všeobecná ambulancia pre deti a dorast, MUDr. Gabriela Gregová, Košice-Západ, (GRELEK s.r.o.)","Brigádnická 2276/2A, 04011 Košice-Západ, Slovenská republika",ambulancia všeobecnej ambulantnej zdravotnej starostlivosti,"{""odborni_zastupcovania"": ""MUDr. Gabriela Gregov\u00e1 ako lek\u00e1r""}"
ambulancie_ksk.fid--1024a340_187273c7313_-5f3f,Hospital,48.723648,21.257944,"Všeobecná ambulancia pre dospelých, MUDr. Mária Vargová, Košice-Staré Mesto, (Artemis DH s.r.o.)","Biela 262/2, 04001 Košice-Staré Mesto, Slovenská republika",ambulancia všeobecnej ambulantnej zdravotnej starostlivosti,"{""odborni_zastupcovania"": ""MUDr. M\u00e1ria Vargov\u00e1 ako lek\u00e1r""}"
ambulancie_ksk.fid--1024a340_187273c7313_-5f3e,Hospital,48.731377,21.250591,"Všeobecná ambulancia pre dospelých, Košice-Sever, (Železničné zdravotníctvo Košice, s.r.o.)","Komenského 37/A, 04001 Košice-Sever, Slovenská republika",ambulancia všeobecnej ambulantnej zdravotnej starostlivosti,"{""odborni_zastupcovania"": ""MUDr. Libor Marko, CSc. ako lek\u00e1r, MUDr. Ferdinand He\u010dko ako lek\u00e1r, PhDr. Val\u00e9ria Samselyov\u00e1 ako in\u00fd zdravotn\u00edcky pracovn\u00edk - psychol\u00f3g""}"
ambulancie_ksk.fid--1024a340_187273c7313_-5f3a,Hospital,48.70813,21.237199,"Všeobecná ambulancia pre dospelých, Košice-Západ, (URDAM s.r.o.)","Trieda SNP 339/88, 04011 Košice-Západ, Slovenská republika",ambulancia všeobecnej ambulantnej zdravotnej starostlivosti,"{""odborni_zastupcovania"": ""MUDr. Lucia Ma\u010d\u00e1kov\u00e1 ako lek\u00e1r""}"
ambulancie_ksk.fid--1024a340_187273c7313_-5f39,Hospital,48.722164,21.237415,"Všeobecná ambulancia pre dospelých, Košice-Západ, (Albeka s.r.o.)","Trieda SNP 457/1, 04011 Košice-Západ, Slovenská republika",ambulancia všeobecnej ambulantnej zdravotnej starostlivosti,"{""odborni_zastupcovania"": ""MUDr. Karol\u00edna K\u00f6v\u00e1ryov\u00e1 ako lek\u00e1r""}"
ambulancie_ksk.fid--1024a340_187273c7313_-5f35,Hospital,48.715814,21.231377,"Všeobecná ambulancia pre dospelých, MUDr. Júlia Horňáková, Košice-Západ, (BENESAN s.r.o.)","Brigádnická 2276/2A, 04011 Košice-Západ, Slovenská republika",ambulancia všeobecnej ambulantnej zdravotnej starostlivosti,"{""odborni_zastupcovania"": ""MUDr. J\u00falia Hor\u0148\u00e1kov\u00e1 ako lek\u00e1r""}"
ambulancie_ksk.fid--1024a340_187273c7313_-5f33,Hospital,48.714765,21.216094,"Lavar GP s.r.o., Košice-Sídlisko KVP, (Lavar GP s.r.o.)","Cottbuská 1581/13, 04023 Košice-Sídlisko KVP, Slovenská republika",ambulancia všeobecnej ambulantnej zdravotnej starostlivosti,"{""odborni_zastupcovania"": ""MUDr. Ladislav Varga ako lek\u00e1r""}"
ambulancie_ksk.fid--1024a340_187273c7313_-5f31,Hospital,48.739504,21.282459,"Všeobecná ambulancia pre deti a dorast, MUDr. Eva Berešová, Košice-Dargov.hrdinov, (LSK PLUS s.r.o.)","Maršala Koneva 985/1, 04022 Košice-Dargov.hrdinov, Slovenská republika",ambulancia všeobecnej ambulantnej zdravotnej starostlivosti,"{""odborni_zastupcovania"": ""MUDr. M\u00e1ria Poledn\u00edkov\u00e1 ako lek\u00e1r, MUDr. Eva B\u00e9re\u0161ov\u00e1 ako lek\u00e1r""}"
ambulancie_ksk.fid--1024a340_187273c7313_-5f2d,Hospital,48.726566,21.245656,"MEDI - LIVA s.r.o., Všeobecná ambulancia pre dospelých, Košice-Staré Mesto, (MEDI - LIVA s.r.o.)","Československej armády 1175/18, 04001 Košice-Staré Mesto, Slovenská republika",ambulancia všeobecnej ambulantnej zdravotnej starostlivosti,"{""odborni_zastupcovania"": ""MUDr. Erna Vavrov\u00e1 ako lek\u00e1r""}"
ambulancie_ksk.fid--1024a340_187273c7313_-5f29,Hospital,48.707854,21.259864,"Všeobecná ambulancia pre dospelých, Košice-Juh, (Medical group Košice s.r.o.)","Mudroňova 625/29, 04001 Košice-Juh, Slovenská republika",ambulancia všeobecnej ambulantnej zdravotnej starostlivosti,"{""odborni_zastupcovania"": ""Mgr. Kremena Bakal\u00e1rov\u00e1 ako lek\u00e1r""}"
ambulancie_ksk.fid--1024a340_187273c7313_-5f28,Hospital,48.717951,21.256237,"Všeobecná ambulancia pre dospelých, Košice-Staré Mesto, (Univerzitná nemocnica - Nemocnica svätého Michala, a. s.)","Murgašova 1390/1, 04001 Košice-Staré Mesto, Slovenská republika",ambulancia všeobecnej ambulantnej zdravotnej starostlivosti,"{""odborni_zastupcovania"": ""MUDr. Gabriela El-Momanyov\u00e1 ako lek\u00e1r, MUDr. Alexander Machava ako lek\u00e1r, Mgr. Monika Karalyosov\u00e1 ako zdravotn\u00edcky laborant, MUDr. Viera Sochov\u00e1 ako lek\u00e1r""}"
ambulancie_ksk.fid--1024a340_187273c7313_-5f27,Hospital,48.717951,21.256237,"Všeobecná ambulancia pre dospelých, Košice-Staré Mesto, (Univerzitná nemocnica - Nemocnica svätého Michala, a. s.)","Murgašova 1390/1, 04001 Košice-Staré Mesto, Slovenská republika",ambulancia všeobecnej ambulantnej zdravotnej starostlivosti,"{""odborni_zastupcovania"": ""Mgr. Monika Karalyosov\u00e1 ako zdravotn\u00edcky laborant, MUDr. Gabriela El-Momanyov\u00e1 ako lek\u00e1r, MUDr. Viera Sochov\u00e1 ako lek\u00e1r, MUDr. Alexander Machava ako lek\u00e1r""}"
ambulancie_ksk.fid--1024a340_187273c7313_-5f26,Hospital,48.717951,21.256237,"Všeobecná ambulancia pre dospelých, Košice-Staré Mesto, (Univerzitná nemocnica - Nemocnica svätého Michala, a. s.)","Murgašova 1390/1, 04001 Košice-Staré Mesto, Slovenská republika",ambulancia všeobecnej ambulantnej zdravotnej starostlivosti,"{""odborni_zastupcovania"": ""Mgr. Monika Karalyosov\u00e1 ako zdravotn\u00edcky laborant, MUDr. Gabriela El-Momanyov\u00e1 ako lek\u00e1r, MUDr. Viera Sochov\u00e1 ako lek\u00e1r, MUDr. Alexander Machava ako lek\u00e1r""}"
ambulancie_ksk.fid--1024a340_187273c7313_-5f24,Hospital,48.72161,21.261904,"Všeobecná ambulancia pre dospelých, Košice-Staré Mesto, (ZANGL s.r.o.)","Mlynská 898/26, 04001 Košice-Staré Mesto, Slovenská republika",ambulancia všeobecnej ambulantnej zdravotnej starostlivosti,"{""odborni_zastupcovania"": ""MUDr. Peter Vasi\u013eko ako lek\u00e1r""}"
ambulancie_ksk.fid--1024a340_187273c7313_-5f21,Hospital,48.721405,21.238406,"Všeobecná ambulancia pre dospelých, MUDr. Jarmila Kubíková, Košice-Západ, (MIJANIMITI s.r.o.)","Ondavská 1559/4, 04011 Košice-Západ, Slovenská republika",ambulancia všeobecnej ambulantnej zdravotnej starostlivosti,"{""odborni_zastupcovania"": ""MUDr. Jarmila Kub\u00edkov\u00e1 ako lek\u00e1r""}"
ambulancie_ksk.fid--1024a340_187273c7313_-5f1e,Hospital,48.722164,21.237415,"Všeobecná ambulancia pre dospelých, Košice-Západ, (PANACEUM s.r.o.)","Trieda SNP 457/1, 04011 Košice-Západ, Slovenská republika",ambulancia všeobecnej ambulantnej zdravotnej starostlivosti,"{""odborni_zastupcovania"": ""MUDr. Lenka Barbierik ako lek\u00e1r""}"
ambulancie_ksk.fid--1024a340_187273c7313_-5f1b,Hospital,48.733999,21.250172,"Všeobecná ambulancia pre dospelých, MUDr. Michal Vlčko, Košice-Sever, (MM3 Medical s. r. o.)","Tomášikova 151/8, 04001 Košice-Sever, Slovenská republika",ambulancia všeobecnej ambulantnej zdravotnej starostlivosti,"{""odborni_zastupcovania"": ""MUDr. Milan Urda ako lek\u00e1r""}"
ambulancie_ksk.fid--1024a340_187273c7313_-5f19,Hospital,48.722164,21.237415,"MUDr. Fečíková Nikoleta-všeobecný lekár pre dospelých, Košice-Západ, (HUMEDIC s.r.o.)","Trieda SNP 457/1, 04011 Košice-Západ, Slovenská republika",ambulancia všeobecnej ambulantnej zdravotnej starostlivosti,"{""odborni_zastupcovania"": ""MUDr. Nikoleta Fe\u010d\u00edkov\u00e1 ako lek\u00e1r""}"
ambulancie_ksk.fid--1024a340_187273c7313_-5f15,Hospital,48.721414,21.238312,"Všeobecná ambulancia pre dospelých, MUDr. Valéria Kuráková, Košice-Západ, (VALS  s.r.o.)","Ondavská 1878/4A, 04011 Košice-Západ, Slovenská republika",ambulancia všeobecnej ambulantnej zdravotnej starostlivosti,"{""odborni_zastupcovania"": ""MUDr. Val\u00e9ria Kur\u00e1kov\u00e1 ako lek\u00e1r""}"
ambulancie_ksk.fid--1024a340_187273c7313_-5f14,Hospital,48.727288,21.251547,"Všeobecná ambulancia pre dospelých, Košice-Staré Mesto, (GH Medical s.r.o.)","Strojárenská 3426/11, 04001 Košice-Staré Mesto, Slovenská republika",ambulancia všeobecnej ambulantnej zdravotnej starostlivosti,"{""odborni_zastupcovania"": ""MUDr. M\u00e1ria Vargov\u00e1 ako lek\u00e1r""}"
ambulancie_ksk.fid--1024a340_187273c7313_-5f13,Hospital,48.72161,21.261904,"Všeobecná ambulancia pre dospelých, MUDr. Peter Vasiľko, Košice-Staré Mesto, (GP CLINIC, s.r.o.)","Mlynská 898/26, 04001 Košice-Staré Mesto, Slovenská republika",ambulancia všeobecnej ambulantnej zdravotnej starostlivosti,"{""odborni_zastupcovania"": ""MUDr. Peter Vasi\u013eko ako lek\u00e1r""}"
ambulancie_ksk.fid--1024a340_187273c7313_-5f12,Hospital,48.707854,21.259864,"Všeobecná ambulancia pre deti a dorast, Košice-Juh, (Medical group Košice s.r.o.)","Mudroňova 625/29, 04001 Košice-Juh, Slovenská republika",ambulancia všeobecnej ambulantnej zdravotnej starostlivosti,"{""odborni_zastupcovania"": ""MUDr. Eva Zavadilikov\u00e1 ako lek\u00e1r""}"
ambulancie_ksk.fid--1024a340_187273c7313_-5f0c,Hospital,48.734801,21.253739,"Všeobecná ambulancia pre dospelých, Košice-Sever, (MUCOMED s.r.o.)","Národná trieda 214/27, 04001 Košice-Sever, Slovenská republika",ambulancia všeobecnej ambulantnej zdravotnej starostlivosti,"{""odborni_zastupcovania"": ""MUDr. M\u00e1rio Baranovi\u010d ako lek\u00e1r""}"
ambulancie_ksk.fid--1024a340_187273c7313_-5f03,Hospital,48.739504,21.282459,"Všeobecná ambulancia pre deti a dorast, MUDr.  Adriana Schuster, Košice-Dargov.hrdinov, (ELAPED s.r.o.)","Maršala Koneva 985/1, 04022 Košice-Dargov.hrdinov, Slovenská republika",ambulancia všeobecnej ambulantnej zdravotnej starostlivosti,"{""odborni_zastupcovania"": ""MUDr. Adriana Schuster ako lek\u00e1r""}"
ambulancie_ksk.fid--1024a340_187273c7313_-5efb,Hospital,48.709149,21.255333,"Všeobecná ambulancia pre dospelých, Košice-Juh, (Univerzitná nemocnica L. Pasteura Košice)","Rastislavova 785/43, 04001 Košice-Juh, Slovenská republika",ambulancia všeobecnej ambulantnej zdravotnej starostlivosti,"{""odborni_zastupcovania"": ""MUDr. Stanislav Andrejko ako zubn\u00fd lek\u00e1r, MUDr. \u013duboslav Be\u0148a , PhD. ako lek\u00e1r""}"
ambulancie_ksk.fid--1024a340_187273c7313_-5efa,Hospital,48.722164,21.237415,"Všeobecná ambulancia pre dospelých, Košice-Západ, (Univerzitná nemocnica L. Pasteura Košice)","Trieda SNP 457/1, 04011 Košice-Západ, Slovenská republika",ambulancia všeobecnej ambulantnej zdravotnej starostlivosti,"{""odborni_zastupcovania"": ""MUDr. \u013duboslav Be\u0148a , PhD. ako lek\u00e1r, MUDr. Stanislav Andrejko ako zubn\u00fd lek\u00e1r""}"
ambulancie_ksk.fid--1024a340_187273c7313_-5ee6,Hospital,48.722164,21.237415,"Všeobecná ambulancia pre deti a dorast, Košice-Západ, (Detská fakultná nemocnica Košice)","Trieda SNP 457/1, 04011 Košice-Západ, Slovenská republika",ambulancia všeobecnej ambulantnej zdravotnej starostlivosti,"{""odborni_zastupcovania"": ""MUDr. Jana Kaiferov\u00e1, PhD. ako zubn\u00fd lek\u00e1r, doc. MUDr. Milan Kuchta, CSc. ako lek\u00e1r, PhDr. Miriam Mati, MPH ako sestra""}"
ambulancie_ksk.fid--1024a340_187273c7313_-5ee4,Hospital,48.714765,21.216094,"Všeobecná ambulancia pre dospelých, Košice-Sídlisko KVP, (VALERE s.r.o.)","Cottbuská 1581/13, 04023 Košice-Sídlisko KVP, Slovenská republika",ambulancia všeobecnej ambulantnej zdravotnej starostlivosti,"{""odborni_zastupcovania"": ""MUDr. Marta H\u00f6r\u010dikov\u00e1 ako lek\u00e1r""}"
kulturne_org_zriad_ksk.2,Culture,48.7198959,21.2591497,Východoslovenská galéria,"Východoslovenská galéria, 27, Hlavná, Stredné Mesto, Košice - mestská časť Staré Mesto, okres Košice I, Košice, Košický kraj, Východné Slovensko, 04001, Slovensko",galéria,"{""web"": ""http://www.vsg.sk/""}"
kulturne_org_zriad_ksk.5,Culture,48.72724805,21.253314604510706,Východoslovenské múzeum,"Východoslovenské múzeum, 2, Námestie Maratónu mieru, Letná, Košice - mestská časť Staré Mesto, okres Košice I, Košice, Košický kraj, Východné Slovensko, 04001, Slovensko",múzeum,"{""web"": ""http://www.vsmuzeum.sk/""}"
kulturne_org_zriad_ksk.8,Culture,48.7231234,21.2597069,Centrum kultúry Košického kraja,"960/9, Hrnčiarska, Stredné Mesto, Košice - mestská časť Staré Mesto, okres Košice I, Košice, Košický kraj, Východné Slovensko, 04001, Slovensko",kultúrne centrá a osvetové strediská,"{""web"": ""www.ckkk.sk""}"
kulturne_org_zriad_ksk.12,Culture,48.7211666,21.2565603,Verejná knižnica Jána Bocatia v Košiciach,"Košice Región Turizmus, 48, Hlavná, Stredné Mesto, Košice - mestská časť Staré Mesto, okres Košice I, Košice, Košický kraj, Východné Slovensko, 04001, Slovensko",knižnica,"{""web"": ""https://vkjb.sk/""}"
kulturne_org_zriad_ksk.17,Culture,48.72724805,21.253314604510706,Knižnica Východoslovenského múzea Košice,"Východoslovenské múzeum, 2, Námestie Maratónu mieru, Letná, Košice - mestská časť Staré Mesto, okres Košice I, Košice, Košický kraj, Východné Slovensko, 04001, Slovensko",knižnica,"{""web"": ""https://www.vsmuzeum.sk/o-nas/#library""}"
kulturne_org_zriad_ksk.25,Culture,48.7221307,21.262005,Divadlo Romathan v Košiciach,"4, Štefánikova, Stredné Mesto, Košice - mestská časť Staré Mesto, okres Košice I, Košice, Košický kraj, Východné Slovensko, 04001, Slovensko",divadlo,"{""web"": ""http://www.romathan.sk/""}"
kulturne_org_zriad_ksk.26,Culture,48.7183424,21.2566125,Divadlo Thália Színház,"3, Timonova, Stredné Mesto, Košice - mestská časť Staré Mesto, okres Košice I, Košice, Košický kraj, Východné Slovensko, 04001, Slovensko",divadlo,"{""web"": ""http://www.thaliaszinhaz.sk/""}"
kulturne_org_zriad_ksk.24,Culture,48.7189797,21.2540356,Bábkové divadlo v Košiciach,"4, Tajovského, Stredné Mesto, Košice - mestská časť Staré Mesto, okres Košice I, Košice, Košický kraj, Východné Slovensko, 04001, Slovensko",divadlo,"{""web"": ""http://www.bdke.sk/""}"
